SAEU19 KAWN 081500 RRD

METAR EGAA 081450Z 25017KT 9999 -SHRA FEW019 BKN032 09/05 Q1011= 

METAR EGAE 081450Z 26025G35KT 9999 FEW022 BKN028 11/06 Q1009= 

METAR EGBJ 081450Z 28008KT 9999 FEW022 BKN032 11/04 Q1018= 

METAR EGHE 081450Z 19006KT 9999 FEW025 10/03 Q1021= 

METAR EGHH 081450Z 24009KT 200V280 9999 FEW042 11/04 Q1020= 

METAR EGJA 081450Z VRB03KT CAVOK 09/01 Q1022= 

METAR EGJB 081450Z 15004KT 080V210 9999 FEW033 09/02 Q1021= 

METAR EGKA 081450Z 21017KT CAVOK 09/02 Q1021= 

METAR EGKK 081450Z 22011KT 190V250 9999 SCT035 10/02 Q1020= 

METAR EGLC 081450Z AUTO 22009KT 170V250 9999 SCT045 12/01 Q1020= 

METAR EGLF 081450Z AUTO 22013KT 9999 FEW036/// OVC044/// 11/03 Q1020= 

METAR COR EGLL 081450Z AUTO 24013KT 9999 SCT040 OVC047 11/02 Q1019 

METAR EGMC 081450Z 23014KT 9999 FEW045 12/01 Q1019= 

METAR EGNH 081450Z 25022KT 9999 BKN041 09/05 Q1015= 

METAR EGNT 081450Z 24017KT 200V260 9999 VCSH BKN023 08/04 Q1009= 

METAR EGPC 081450Z AUTO 25023KT 9999 NCD 07/01 Q0996= 

METAR EGPF 081450Z AUTO 21019G29KT 9999 -RA BKN024/// BKN028/// BKN034/// 

METAR EGPN 081450Z 26033G46KT 9999 FEW030 10/05 Q1002= 

METAR EGPO 081450Z 26025G41KT 9999 FEW016 SCT042 07/M00 Q0998= 

METAR EGSC 081450Z 23015KT 9999 FEW030 BKN037 11/02 Q1018= 

METAR EGSS 081450Z AUTO 23015KT 9999 BKN038 BKN049 12/03 Q1018= 

METAR EGSY 081450Z 27015KT 9999 FEW017 SCT040 BKN049 10/05 Q1020= 

METAR ESKN 081450Z 25016KT 9999 SCT068TCU 08/M05 Q1006= 

METAR ESNG 081450Z 28007KT CAVOK 01/M12 Q0996= 

METAR ESSD 081450Z 24010KT CAVOK 06/M09 Q1003= 

METAR EGAE 081450Z 26025G35KT 9999 FEW022 BKN028 11/06 Q1009= 

METAR EGBB 081450Z 26009KT 220V290 9999 BKN034 OVC047 10/03 Q1017= 

METAR EGBJ 081450Z 28008KT 9999 FEW022 BKN032 11/04 Q1018= 

METAR COR EGCC 081450Z AUTO 24020KT 9999 BKN040 BKN048 10/01 Q1016 

METAR EGDM 081450Z 25011KT 9999 BKN030 BKN042 10/03 Q1019 NOSIG RMK 

METAR EGJA 081450Z VRB03KT CAVOK 09/01 Q1022= 

METAR EGJB 081450Z 15004KT 080V210 9999 FEW033 09/02 Q1021= 

METAR EGKK 081450Z 22011KT 190V250 9999 SCT035 10/02 Q1020= 

METAR COR EGLL 081450Z AUTO 24013KT 9999 SCT040 OVC047 11/02 Q1019 

METAR EGNS 081450Z 23019KT 9999 FEW020 BKN042 09/05 Q1013 NOSIG= 

METAR EGOS 081450Z 25016KT 9999 SCT042 BKN120 09/02 Q1016 NOSIG RMK 

METAR EGPC 081450Z AUTO 25023KT 9999 NCD 07/01 Q0996= 

METAR EGPF 081450Z AUTO 21019G29KT 9999 -RA BKN024/// BKN028/// BKN034/// 

METAR EGPK 081450Z 24021KT 9999 -RA FEW028 SCT039 08/06 Q1008= 

METAR EGPN 081450Z 26033G46KT 9999 FEW030 10/05 Q1002= 

METAR EGQM 081450Z AUTO /////KT 9999 SCT022/// BKN041/// 10/04 Q1007= 

METAR EGSC 081450Z 23015KT 9999 FEW030 BKN037 11/02 Q1018= 

METAR EGSS 081450Z AUTO 23015KT 9999 BKN038 BKN049 12/03 Q1018= 

METAR EGSY 081450Z 27015KT 9999 FEW017 SCT040 BKN049 10/05 Q1020= 

METAR EGUW 081450Z 25013KT 9999 BKN043 11/03 Q1018 NOSIG RMK BLU BLU= 

METAR EGVN 081450Z 24008KT 9999 FEW040 BKN055 11/01 Q1018 NOSIG RMK 

METAR EGXZ 081450Z AUTO 24019G31KT 9999 BKN037/// SCT044/// 10/02 Q1013= 

METAR EGYD 081450Z 25021KT 9999 BKN048 BKN250 12/01 Q1016 NOSIG RMK 

METAR EDDE 081450Z 25010KT 200V270 9999 SCT040 04/M04 Q1022 NOSIG= 

METAR EDDF 081450Z 23004KT 180V340 CAVOK 09/M05 Q1023 NOSIG= 

METAR EDDK 081450Z 23011KT 200V280 CAVOK 09/M05 Q1023 NOSIG= 

METAR EDDL 081450Z 22013KT 190V260 CAVOK 09/M03 Q1022 NOSIG= 

METAR EDDP 081450Z 25016KT 9999 FEW036CB 06/M03 Q1022 NOSIG= 

METAR EDDW 081450Z 23014KT 9999 FEW034 07/M02 Q1020 R88/290095 TEMPO 

METAR EGBB 081450Z 26009KT 220V290 9999 BKN034 OVC047 10/03 Q1017= 

METAR EGBJ 081450Z 28008KT 9999 FEW022 BKN032 11/04 Q1018= 

METAR COR EGCC 081450Z AUTO 24020KT 9999 BKN040 BKN048 10/01 Q1016 

METAR EGJA 081450Z VRB03KT CAVOK 09/01 Q1022= 

METAR EGKK 081450Z 22011KT 190V250 9999 SCT035 10/02 Q1020= 

METAR EGPF 081450Z AUTO 21019G29KT 9999 -RA BKN024/// BKN028/// BKN034/// 

METAR EGPK 081450Z 24021KT 9999 -RA FEW028 SCT039 08/06 Q1008= 

METAR EGSC 081450Z 23015KT 9999 FEW030 BKN037 11/02 Q1018= 

METAR EGSS 081450Z AUTO 23015KT 9999 BKN038 BKN049 12/03 Q1018= 

METAR EGSY 081450Z 27015KT 9999 FEW017 SCT040 BKN049 10/05 Q1020= 

METAR EKAH 081450Z AUTO 24008KT 200V270 9999 BKN043/// 06/M01 Q1013= 

METAR EKVD 081450Z 24023G33KT 9999 BKN030 06/M02 Q1014= 

METAR EKYT 081450Z AUTO 23019KT 9999 SCT034/// BKN043/// 06/M01 Q1010= 
