SAEU19 KAWN 081200 RRE

METAR EBAW 081150Z 23010KT 190V280 CAVOK 08/M05 Q1024 NOSIG= 

METAR EBBR 081150Z 24009KT 200V290 CAVOK 07/M03 Q1024 NOSIG= 

METAR EBCI 081150Z 22010KT 190V270 9999 BKN045 06/M06 Q1024 NOSIG= 

METAR EBLG 081150Z 25010KT 9999 FEW045 06/M05 Q1024 NOSIG= 

METAR EBOS 081150Z 29010KT CAVOK 08/M03 Q1024 NOSIG= 

METAR EDAH 081150Z 29008KT 220V350 9999 BKN033 07/M03 Q1017= 

METAR EDLW 081150Z 22012KT 9999 FEW037 BKN051 07/M03 Q1023= 

METAR EDMO 081150Z 26009KT 230V290 9999 FEW034 03/M04 Q1024= 

METAR EDXW 081150Z 24017KT 9999 FEW026 OVC049 06/M00 Q1017= 

METAR COR EGCC 081150Z AUTO 24018KT 9999 BKN037 OVC048 11/02 Q1017 

METAR EGUW 081150Z 23014KT 9999 FEW025 BKN040 09/02 Q1020 NOSIG RMK 

METAR EHLW 081155Z AUTO 23017KT 9999 OVC051 08/M02 Q1020 BLU NOSIG= 

METAR EHVL 081155Z AUTO 23026KT 9999 OVC047 08/02 Q1019 BLU= 

METAR EKVJ 081150Z 22013KT 9999 FEW025 BKN045 05/00 Q1015= 

METAR ESKN 081150Z 22006KT 190V250 9999 VCSH SCT066TCU BKN098 07/M07 

METAR ESPA 081150Z VRB03KT CAVOK 04/M08 Q0998= 

METAR ESSP 081150Z 26007KT 220V310 9999 FEW035CB SCT060 BKN190 09/M06 

METAR ESSV 081150Z 28006KT 250V310 CAVOK 05/01 Q1008= 

METAR EDFH 081150Z 22011KT 190V290 9999 SCT044 04/M06 Q1023= 

METAR EDHL 081150Z 21011KT 9999 BKN037 06/01 Q1019= 

METAR EDNY 081150Z 23005KT 170V320 CAVOK 08/M05 Q1025= 

METAR EDVE 081150Z 27013KT 240V300 9999 FEW036 05/M03 Q1022= 

METAR ENBL 081150Z 14003KT 2000 SN VV014 M01/M03 Q0998= 

METAR ENBN 081150Z 19007KT 4000 SHSN VV008 M01/M03 Q1001= 

METAR ENEV 081150Z 13005KT 9999 SCT008 BKN090 M01/M10 Q0998 RMK WIND 

METAR ENHE 081150Z 20002KT 9999 SCT018 02/M07 Q0999 W///S5= 

METAR ENMS 081150Z VRB03KT 9999 VCSH FEW020CB SCT032 01/M08 Q1000 RMK 

METAR ENRM 081150Z 19010KT 9000 3500 -SHSN FEW003 SCT008 BKN030 M01/M02 

METAR ENSD 081150Z 09011KT 060V140 9999 -SHSN SCT026 BKN034 02/M04 

METAR LGKF 081150Z 32016KT 9999 FEW018 15/02 Q1020= 

METAR LGMK 081150Z 35022KT 9999 FEW015 SCT030 16/08 Q1014= 

METAR LGSR 081150Z 27015G25KT 9999 BKN020 18/13 Q1015 RMK SCT080 WHT= 

METAR LGTG 081150Z 33010G20KT 7000 -RA FEW015 BKN030 08/04 Q1020 RMK 

METAR LIBD 081150Z 35011KT 320V030 CAVOK 12/M03 Q1026= 

METAR LIEA 081150Z 19009KT 150V230 CAVOK 14/M01 Q1028= 

METAR LIME 081150Z 24011KT 200V290 CAVOK 14/M11 Q1023 NOSIG= 

METAR LIMJ 081150Z 20009KT 9999 SCT035 13/04 Q1025= 

METAR LIPE 081150Z 02004KT 300V110 CAVOK 15/M06 Q1024= 

METAR LIPQ 081150Z AUTO 22009KT 170V250 9999 NCD 12/M09 Q1024= 

METAR LIPZ 081150Z 18006KT CAVOK 11/M01 Q1024 NOSIG= 

METAR LIRP 081145Z 26015KT 9999 SCT040 SCT070 12/00 Q1026 NOSIG= 

METAR EDAH 081150Z 29008KT 220V350 9999 BKN033 07/M03 Q1017= 

METAR EDLN 081150Z 21010KT 170V240 CAVOK 07/M04 Q1024= 

METAR EDLP 081150Z 24011KT 220V280 9999 SCT040 BKN049 05/M02 Q1023= 

METAR EDMO 081150Z 26009KT 230V290 9999 FEW034 03/M04 Q1024= 

METAR EDSB 081150Z 24007KT 210V290 CAVOK 07/M04 Q1026= 

METAR EDVK 081150Z 25008KT 220V310 9999 BKN038 04/M03 Q1023= 

METAR EDXW 081150Z 24017KT 9999 FEW026 OVC049 06/M00 Q1017= 

METAR COR EGSH 081150Z 21012KT 170V250 9999 SCT027 10/04 Q1019 NOSIG= 

METAR ENNA 081150Z 22007KT CAVOK 01/M08 Q0998 RMK WIND 1800FT 00000KT= 

METAR ENRA 081150Z 31006KT 9999 5000NW -SHSN FEW020 SCT028 BKN040 M00/M04 

METAR ENSH 081150Z 17015KT 9999 -SHSNGS SCT019CB SCT043 M01/M06 Q0998 

METAR ENST 081150Z 19011KT 1000 SHSN VV007 M01/M03 Q1000 RMK WIND 300FT 

METAR LGAL 081150Z 01008KT 9999 FEW015 BKN030 OVC060 07/00 Q1020= 

METAR LGEL 081150Z 33012G22KT 9999 FEW020 BKN030 11/04 Q1016= 

METAR LGKL 081150Z 34011KT 9999 SCT030 17/02 Q1017= 

METAR LGKV 081150Z 27004KT 9999 -DZ BKN020 OVC070 07/03 Q1021= 

METAR LGSM 081150Z 21009KT 9999 FEW018 SCT030 19/14 Q1013= 

METAR LGSY 081150Z 36019G30KT 5000 RA SCT008 BKN018 08/07 Q1019 RMK 

METAR LICJ 081150Z 05016KT CAVOK 14/02 Q1025= 

METAR LIPX 081150Z 25013KT 220V290 CAVOK 15/M06 Q1023= 

METAR LOWS 081150Z 35006KT 290V040 9999 FEW012 SCT028 BKN050 03/M01 

METAR LOWW 081150Z 28011KT 250V320 9999 FEW018 FEW038TCU BKN045 07/M04 
