SAUS12 KAWN 081300 RRD

METAR K24A 081255Z AUTO 08004KT 10SM CLR 14/09 A2997 RMK AO2 T01420086= 

METAR K7W4 081255Z AUTO 09006KT 10SM CLR 14/05 A3005 RMK AO1 T01410051= 

METAR KAAF 081253Z AUTO 16009KT 10SM CLR 22/20 A3000 RMK AO2 SLP158 

METAR KAMG 081253Z AUTO 19005KT 10SM CLR 15/13 A3002 RMK AO2 SLP164 

METAR KAPF 081253Z 11006KT 10SM CLR 20/16 A3003 RMK AO2 SLP166 T02000161= 

METAR KATL 081252Z 20009KT 10SM FEW010 SCT130 BKN160 BKN250 17/14 A2991 

METAR KCKV 081252Z AUTO 15008KT 10SM OVC014 16/14 A2971 RMK AO2 SLP056 

METAR KCLT 081252Z 19005KT 7SM FEW200 BKN250 18/12 A2997 RMK AO2 SLP144 

METAR KDAN 081253Z AUTO 06006KT 10SM CLR 16/11 A2998 RMK AO2 SLP145 

METAR KDTS 081253Z 14005KT 5SM -RA BR FEW024 BKN110 21/19 A2997 RMK 

METAR KFLL 081253Z 13010KT 10SM FEW033 SCT250 23/15 A3002 RMK AO2 SLP166 

METAR KFLO 081253Z 25006KT 10SM CLR 18/09 A2999 RMK AO2 SLP151 T01830094= 

METAR KIAD 081252Z 13005KT 10SM FEW110 FEW250 15/06 A3008 RMK AO2 SLP183 

METAR KMAO 081255Z AUTO 23005KT 10SM CLR 16/11 A2999 RMK AO2= 

METAR KMCO 081253Z 20007KT 10SM FEW250 19/16 A3004 RMK AO2 SLP172 T01940156= 

METAR KMEB 081252Z AUTO 24005KT 10SM CLR 17/11 A2998 RMK AO2 SLP151 

METAR KMSL 081253Z AUTO 20008KT 10SM BKN050 OVC065 18/14 A2977 RMK 

METAR KTPA 081253Z 14007KT 10SM FEW250 22/15 A3004 RMK AO2 SLP171 T02170150= 

METAR EBBR 081250Z 24009KT 210V280 CAVOK 08/M04 Q1024 NOSIG= 

METAR EBOS 081250Z 28010KT CAVOK 08/M01 Q1023 NOSIG= 

METAR EDMO 081250Z 22008KT 190V250 9999 FEW035 BKN041 04/M04 Q1024= 

METAR EDVE 081250Z 25012KT 9999 FEW035 05/M02 Q1022= 

METAR EGDR 081250Z 21008KT 9999 SCT025 SCT045 10/05 Q1022 NOSIG RMK 

METAR EHWO 081255Z AUTO 24013KT 190V280 9999 BKN048 09/M03 Q1023 BLU 

METAR ELLX 081250Z 23009KT 180V260 9999 BKN048 06/M05 Q1023 NOSIG= 

METAR LGHI 081250Z 32011G24KT 9999 FEW016 15/06 Q1013= 

METAR LGKC 081250Z 27017KT 9999 FEW025 16/11 Q1017= 

METAR LGKL 081250Z 33012KT 9999 SCT030 17/03 Q1017= 

METAR LGKZ 081250Z 30012KT 9999 SCT025 SCT070 08/M10 Q1020= 

METAR LGLM 081250Z 01018G28KT 9999 -RA FEW010 BKN020 06/03 Q1019= 

METAR LGLR 081250Z 34005KT 9999 FEW030 BKN080 11/M01 Q1021 BLU= 

METAR LGMK 081250Z 34024G35KT 9999 FEW015 16/08 Q1014= 

METAR LGPZ 081250Z 28016KT 9999 FEW025 16/02 Q1018 BLU= 

METAR LICC 081250Z 07013KT 040V100 9999 FEW040 15/04 Q1024= 

METAR LICD 081250Z AUTO 36012KT 9999 NCD 15/05 Q1024= 

METAR LICJ 081250Z 05016KT CAVOK 13/01 Q1026= 

METAR LIPB 081250Z 21004KT 160V300 CAVOK 15/M12 Q1022= 

METAR LIPH 081250Z 17005KT 100V230 CAVOK 14/M09 Q1023= 

METAR LIPQ 081250Z AUTO 23008KT 9999 NCD 12/M06 Q1024= 

METAR LIPR 081250Z 09009KT CAVOK 13/M04 Q1024= 

METAR LIPZ 081250Z 13008KT CAVOK 11/M00 Q1024 NOSIG= 

METAR LOWG 081250Z 36012KT 9999 FEW060 09/M07 Q1022 NOSIG= 

METAR EGAC 081250Z AUTO 23017KT 9999 BKN031/// 09/03 Q1012= 

METAR EGBB 081250Z 26011KT 220V300 9999 BKN043 12/01 Q1018= 

METAR COR EGCC 081250Z AUTO 23018KT 9999 BKN040 11/01 Q1017 NOSIG= 

METAR EGCC 081250Z AUTO 23018KT 9999 BKN040 11/01 Q1017= 

METAR EGDM 081250Z 23011KT 9999 BKN028 SCT042 10/04 Q1021 NOSIG RMK 

METAR EGHI 081250Z 20014KT 170V240 9999 FEW032 12/03 Q1022= 

METAR EGJB 081250Z VRB04KT 9999 FEW033 10/02 Q1023= 

METAR EGKA 081250Z 22017KT CAVOK 10/02 Q1023= 

METAR EGKK 081250Z 23011KT 190V250 9999 SCT040 11/01 Q1022= 

METAR EGLL 081250Z AUTO 25013KT 200V270 9999 BKN040 11/01 Q1021= 

METAR EGMC 081250Z 23014KT 9999 FEW034 SCT039 12/00 Q1021= 

METAR EGNH 081250Z 25021KT 9999 FEW010 SCT016 09/06 Q1016= 

METAR EGNJ 081250Z 24020KT 9999 SCT037 12/03 Q1016= 

METAR EGNT 081250Z 24020G30KT 9999 BKN024 10/04 Q1011= 

METAR EGNV 081250Z 23024KT 9999 SCT020 SCT032 09/04 Q1013= 

METAR EGPC 081250Z AUTO 25018KT 9999 FEW019/// SCT024/// BKN046/// 

METAR EGPE 081250Z 27022KT 4500 RA FEW010 SCT018 BKN025 06/04 Q1001= 

METAR EGPF 081250Z AUTO 24023G33KT 9999 BKN025/// BKN035/// //////TCU 

METAR EGPH 081250Z 25023G34KT 9999 -RA BKN019 09/06 Q1007= 

METAR EGPK 081250Z 24018KT 9999 FEW022 BKN028 OVC034 09/05 Q1010= 

METAR EGPL 081250Z AUTO 27023KT 9999 BKN035/// 07/02 Q1003= 

METAR EGPO 081250Z 26022G33KT 9999 FEW016 BKN038 08/M00 Q0999= 

METAR COR EGSH 081250Z 22014KT 190V250 9999 SCT028 12/04 Q1019 NOSIG= 

METAR EGSS 081250Z AUTO 23014KT 9999 FEW037 12/03 Q1020= 
