SAUS12 KAWN 081300 RRW

METAR K18A 081255Z AUTO 17004KT 10SM CLR 17/12 A2994 RMK AO2 T01680119= 

METAR K1A6 081255Z AUTO 19003KT 10SM CLR 19/11 A2987 RMK AO2 T01850112= 

METAR K2I0 081255Z AUTO 19008KT 10SM OVC014 17/14 A2969 RMK AO2 T01680135= 

METAR K48A 081255Z AUTO 18005KT 10SM CLR 16/14 A2999 RMK AO2 T01560135= 

METAR KACJ 081255Z AUTO 17003KT 10SM CLR 17/15 A3000 RMK AO2= 

METAR KCKF 081255Z AUTO 22003KT 10SM CLR 17/13 A3000 RMK AO2 T01650132= 

METAR KCXE 081255Z AUTO 11005KT 10SM CLR 15/12 A3000 RMK AO1 T01510116= 

METAR KDBN 081255Z AUTO 00000KT 10SM CLR 16/13 A3002 RMK AO2= 

METAR KDNN 081255Z AUTO 16003KT 7SM -RA BKN048 OVC060 18/15 A2991 RMK 

METAR KEZF 081255Z AUTO 09008KT 10SM CLR 15/05 A3006 RMK AO2 T01500054= 

METAR KGVL 081253Z AUTO 14005KT 8SM CLR 16/11 A2993 RMK AO2 SLP125 

METAR KHNZ 081255Z AUTO 08004KT 10SM CLR 14/11 A2998 RMK AO2 T01420113= 

METAR KJKA 081255Z AUTO 16007KT 7SM VCTSRA SCT021 BKN070 OVC110 20/18 

METAR KJQF 081250Z 00000KT 10SM CLR 18/12 A2999= 

METAR KNQX 081253Z 11009KT 10SM SCT035 SCT250 24/19 A3001 RMK AO2 SLP162 

METAR KOKZ 081255Z AUTO 19004KT 10SM CLR 16/13 A2999 RMK AO2 T01590131= 

METAR KOPN 081255Z AUTO 20007KT 10SM OVC012 16/15 A2996 RMK AO2= 

METAR KPBX 081255Z AUTO 16003KT 10SM CLR 18/08 A2989 RMK AO2 T01770084= 

METAR KPIE 081253Z 16008KT 10SM CLR 22/16 A3003 RMK AO2 SLP168 T02170161= 

METAR KSEF 081255Z AUTO 18005KT 10SM CLR 20/15 A3006 RMK AO2 PWINO 

METAR KSJS 081255Z AUTO 18005KT 10SM CLR 19/09 A2988 RMK AO2 T01940090= 

METAR KTMA 081255Z AUTO 19004KT 10SM CLR 16/14 A3002 RMK AO2 T01600139= 

METAR KW81 081255Z AUTO 08005KT 10SM OVC018 14/12 A3002 RMK AO1 T01400115= 

METAR KX26 081255Z AUTO 25005KT 10SM CLR 19/15 A3006 RMK AO2 T01910154= 

METAR KZPH 081255Z AUTO 00000KT 10SM CLR 18/14 A3006 RMK A02 T01780143= 

METAR SAZN 081300Z 27006KT CAVOK 16/08 Q1014= 

METAR SBPK 081300Z 03014KT CAVOK 25/19 Q1021= 

METAR SBRP 081300Z 11014KT CAVOK 25/15 Q1021= 

METAR SCAR 081300Z 22005KT 190V290 9999 OVC026 19/16 Q1015= 

METAR SCBA 081300Z VRB02KT 9999 SCT030 06/03 Q1011= 

METAR SCCH 081300Z 06005KT 5000 HZ SCT100 12/10 Q1018= 

METAR SCCI 081300Z 26013KT 9999 SCT048 BKN100 07/M00 Q1005 NOSIG= 

METAR SCDA 081300Z VRB02KT 9999 OVC027 20/14 Q1015= 

METAR SCFA 081300Z 17005KT 120V190 9999 BKN028 19/13 Q1016 NOSIG= 

METAR SCIE 081300Z 03005KT 350V050 2500 BR OVC002 11/11 Q1017= 

METAR SCNT 081300Z 18015KT 140V200 9999 SCT015 BKN100 07/03 Q1007= 

METAR SCSE 081300Z VRB02KT 9999 FEW008 OVC012 15/12 Q1016= 

METAR SCTE 081300Z 02008KT 340V050 9999 -RA FEW006 SCT010 OVC060 12/ 

METAR SKLT 081300Z 36003KT 9999 SCT010 BKN100 26/25 Q1012 RMK A2991= 

METAR SKRG 081300Z VRB02KT 9999 FEW017 BKN090 16/14 Q1026 NOSIG RMK 

METAR SKSP 081300Z 06008KT 030V120 9999 FEW018 SCT200 28/23 Q1011 RMK 

METAR SPGM 081300Z 01002KT 9999 SCT015 BKN100 23/22 Q1016 RMK TX32.0 

METAR SPJI 081300Z 00000KT 8000 OVC012 24/21 Q1021 RMK TX32.6/TN19.8 

METAR SPJR 081300Z 00000KT 9999 SCT023 BKN043 13/11 Q1029 RMK PP000= 

METAR SPMS 081300Z 00000KT 9999 SCT010 SCT080 25/24 Q1012 RMK TX31.2/TN23.4 

METAR SPST 081300Z 13002KT 5000 BR SCT005 SCT020 BKN080 24/23 Q1014 

METAR SPYL 081300Z 14014KT CAVOK 24/18 Q1013 RMK TN20.2 BIRD HAZARD 
