SAUS11 KAWN 081300 RRB

METAR KAID 081259Z 14007KT 10SM OVC050 17/13 A2972= 

METAR KALN 081250Z 18010KT 10SM BKN055 11/09 A2960= 

METAR KANQ 081255Z AUTO 12010KT 10SM OVC120 17/12 A2972 RMK AO2= 

METAR KARV 081255Z AUTO 12008KT 7SM OVC003 14/08 A2962 RMK AO2 T01380081= 

METAR KD55 081255Z AUTO 02009KT 10SM BKN016 03/M04 A2976 RMK AO2= 

METAR KDLL 081255Z AUTO 12005KT 10SM -RA SCT013 OVC044 14/13 A2955 

METAR KLUM 081255Z AUTO 08009KT 7SM OVC110 13/13 A2951 RMK AO2 T01300126= 

METAR KMDZ 081255Z AUTO 10009G15KT 5SM BR OVC005 13/13 A2957 RMK AO2 

METAR KMWC 081245Z 14006KT 10SM SCT027 BKN034 OVC047 13/08 A2961= 

METAR KOQU 081250Z 03010KT 10SM SCT050 14/08 A3010= 

METAR KOXC 081251Z 32005KT 10SM CLR 13/06 A3013 RMK AO2 SLP216 T01280056= 

METAR KPBH 081255Z AUTO 10007KT 10SM BKN008 OVC095 13/13 A2958 RMK 

METAR KQHC 081255Z AUTO VRB01KT 10SM CLR 14/07 A3014 RMK AO2 SLP206 

METAR KRCX 081255Z AUTO 11005KT 10SM 14/14 A2958 RMK AO2 T01440144= 

METAR KRRL 081255Z AUTO 10009KT 7SM OVC005 13/13 A2959 RMK AO2 T01260126 

METAR KSAW 081247Z 12005KT 7SM SCT003 SCT038 11/10 A2971= 

METAR KSCH 081248Z 00000KT 15SM CLR 10/07 A3014= 

METAR KSUX 081252Z 33017KT 7SM -RA OVC009 07/06 A2950 RMK AO2 PK WND 

METAR KTZR 081250Z 14005KT 10SM BKN110 17/10 A2981= 

METAR KUNU 081255Z AUTO 14003KT 3SM +RA SCT020 BKN029 OVC060 13/12 

METAR KUNV 081253Z 15004KT 10SM CLR 15/04 A3004= 

METAR KY51 081255Z AUTO 12010G16KT 10SM OVC010 14/14 A2951 RMK AO1 

METAR EGOP 081250Z 23018KT 9999 FEW020 BKN050 11/07 Q1021 BLU= 

METAR EGOS 081250Z 25018KT 9999 SCT035 BKN130 10/02 Q1018 NOSIG RMK 

METAR EGPU 081250Z 25028KT 9000 VCSH FEW018 BKN049 09/07 Q1005= 

METAR EGXZ 081250Z AUTO 25021KT 9999 SCT020/// 09/05 Q1015= 

METAR EGYD 081250Z 26021KT 9999 FEW035 BKN120 BKN250 13/03 Q1017 NOSIG 

METAR EKAH 081250Z AUTO 26012G22KT 9999 BKN045/// 06/M02 Q1014= 

METAR EKBI 081250Z AUTO 24015KT 9999 BKN037/// 05/M02 Q1014= 

METAR EKCH 081250Z AUTO 27013KT 9999 OVC047/// 06/M03 Q1015 NOSIG= 

METAR EKEB 081250Z AUTO 22017KT 9999 BKN026/// 05/01 Q1015= 

METAR EKKA 081250Z AUTO 23017KT 9999 BKN038/// 06/M03 Q1013 TEMPO 25020G30KT= 

METAR EKOD 081250Z 24017G27KT 9999 FEW037 BKN043 BKN050 05/00 Q1016= 

METAR EKRK 081250Z AUTO 27016KT 240V300 9999 OVC049/// 07/M03 Q1015= 

METAR EKRN 081250Z AUTO 26017KT 9999 NCD 06/M01 Q1015= 

METAR EKSB 081250Z 25012KT 220V290 9999 SCT030 BKN050 06/M01 Q1016= 

METAR EKSN 081250Z 25015KT 9999 SCT031 BKN047 05/M01 Q1011= 

METAR EKVD 081250Z 25021KT 9999 BKN035 06/M02 Q1015= 

METAR EKVJ 081250Z 22018KT 9999 FEW025 BKN045 06/00 Q1015= 

METAR EKYT 081250Z AUTO 24019KT 9999 FEW042/// BKN049/// 06/M02 Q1012= 

METAR GVAC 081300Z 03017KT 9999 FEW013 25/16 Q1015 NOSIG= 

METAR LGIR 081250Z 30018G28KT 9999 FEW020 SCT080 18/14 Q1015 NOSIG= 

METAR LGKR 081250Z 32016KT 9999 FEW035 15/M05 Q1019 NOSIG= 

METAR LGRP 081250Z 23017KT 9999 SCT018 19/14 Q1013 NOSIG= 

METAR LHKE 081245Z 31019KT 9999 VCTS FEW033TCU SCT040 BKN083 06/M01 

METAR LSGG 081250Z VRB03KT CAVOK 11/M10 Q1023 NOSIG= 

METAR LSZA 081250Z 19005KT 150V220 CAVOK 14/M14 Q1022 NOSIG= 

METAR LSZB 081250Z 16004KT 070V240 CAVOK 10/M07 Q1023 NOSIG= 

METAR LSZH 081250Z VRB02KT 9999 FEW060 09/M06 Q1024 NOSIG= 

METAR EDDE 081250Z 27010KT 9999 -SHSN FEW030 BKN048 04/M03 Q1023 NOSIG= 

METAR EDDH 081250Z 25013KT 220V290 9999 VCSH FEW016 FEW024CB 06/M01 

METAR EDDL 081250Z 22011KT CAVOK 07/M04 Q1024 NOSIG= 

METAR EKAH 081250Z AUTO 26012G22KT 9999 BKN045/// 06/M02 Q1014= 

METAR EKBI 081250Z AUTO 24015KT 9999 BKN037/// 05/M02 Q1014= 

METAR EKCH 081250Z AUTO 27013KT 9999 OVC047/// 06/M03 Q1015 NOSIG= 

METAR EKEB 081250Z AUTO 22017KT 9999 BKN026/// 05/01 Q1015= 

METAR EKKA 081250Z AUTO 23017KT 9999 BKN038/// 06/M03 Q1013 TEMPO 25020G30KT= 

METAR EKOD 081250Z 24017G27KT 9999 FEW037 BKN043 BKN050 05/00 Q1016= 

METAR EKRK 081250Z AUTO 27016KT 240V300 9999 OVC049/// 07/M03 Q1015= 

METAR EKRN 081250Z AUTO 26017KT 9999 NCD 06/M01 Q1015= 

METAR EKSB 081250Z 25012KT 220V290 9999 SCT030 BKN050 06/M01 Q1016= 

METAR EKSN 081250Z 25015KT 9999 SCT031 BKN047 05/M01 Q1011= 

METAR EKSP 081250Z 24017G27KT 9999 SCT028 BKN060 06/M01 Q1016 NOSIG= 

METAR EKVD 081250Z 25021KT 9999 BKN035 06/M02 Q1015= 

METAR EKVG 081250Z AUTO 36028G38KT 3800 -SN SCT014/// M00/M02 Q0994= 

METAR EKVJ 081250Z 22018KT 9999 FEW025 BKN045 06/00 Q1015= 

METAR EKYT 081250Z AUTO 24019KT 9999 FEW042/// BKN049/// 06/M02 Q1012= 

METAR ETNG 081250Z 25012KT CAVOK 08/M05 Q1024 NOSIG= 

METAR LSGG 081250Z VRB03KT CAVOK 11/M10 Q1023 NOSIG= 

METAR LSZA 081250Z 19005KT 150V220 CAVOK 14/M14 Q1022 NOSIG= 

METAR LSZB 081250Z 16004KT 070V240 CAVOK 10/M07 Q1023 NOSIG= 

METAR LSZH 081250Z VRB02KT 9999 FEW060 09/M06 Q1024 NOSIG= 
