SAEU19 KAWN 081900 RRD

METAR EGFF 081850Z AUTO 27009KT 9999 OVC046 08/06 Q1018= 

METAR EGGD 081850Z AUTO 26011KT 9999 SCT024 OVC028 07/04 Q1018= 

METAR EGJJ 081850Z 35003KT CAVOK 07/01 Q1019= 

METAR EGKB 081850Z 20012KT 9999 FEW046 07/01 Q1018= 

METAR EGLC 081850Z AUTO 21010KT 170V240 9999 FEW038 10/02 Q1018= 

METAR EGNJ 081850Z 23018KT 9999 SCT047 10/02 Q1012= 

METAR EGNV 081850Z 21017KT 9999 FEW015 BKN026 08/03 Q1009= 

METAR EGOS 081850Z 24013KT 9999 FEW035 SCT060 BKN250 08/02 Q1014 RMK 

METAR EGPB 081850Z 30019G33KT 8000 -SHRA FEW013CB SCT024 03/01 Q0990= 

METAR COR EGPD 081850Z AUTO 26014KT 220V290 9999 NCD 06/M02 Q0998 NOSIG= 

METAR EGPL 081850Z AUTO 30029G39KT 9999 SCT021/// BKN028/// BKN033/// 

METAR EGPO 081850Z AUTO 33017KT 9999 -RA SCT022/// BKN028/// 05/02 

METAR EGSH 081850Z AUTO 22013KT 180V270 9999 SCT039/// BKN046/// 11/03 

METAR EGTC 081850Z 23018KT 9999 SCT049 08/02 Q1016= 

METAR EHLW 081855Z AUTO 21013KT 9999 BKN036 OVC110 06/00 Q1016 BLU= 

METAR EHVL 081855Z AUTO 22025KT 9999 OVC100 07/02 Q1015 BLU= 

METAR EHWO 081855Z AUTO 23005KT 9999 OVC120 07/M01 Q1019 BLU= 

METAR ESNG 081850Z AUTO 28002KT 9999 NCD M05/M12 Q0995= 

METAR ESNO 081850Z AUTO 17005KT 9999 SCT076/// M01/M08 Q0999= 

METAR ESNS 081850Z AUTO 22003KT 9999 NCD M03/M08 Q0998= 

METAR ESOE 081850Z 23013KT 9999 FEW035 SCT096 04/M02 Q1004= 

METAR ESOW 081850Z AUTO 23010KT 200V260 9999 NCD 04/M06 Q1004= 

METAR ESSA 081850Z 19008KT CAVOK 04/M04 Q1003 R08/09//95 R19L/09//95 

METAR ESSD 081850Z AUTO 20013KT 9999 BKN053/// OVC072/// 04/M06 Q1000= 

METAR ESSP 081850Z AUTO 23010KT 9999 NCD 04/M05 Q1006= 

METAR EGFF 081850Z AUTO 27009KT 9999 OVC046 08/06 Q1018= 

METAR EGJJ 081850Z 35003KT CAVOK 07/01 Q1019= 

METAR EGKB 081850Z 20012KT 9999 FEW046 07/01 Q1018= 

METAR EGNJ 081850Z 23018KT 9999 SCT047 10/02 Q1012= 

METAR EGNV 081850Z 21017KT 9999 FEW015 BKN026 08/03 Q1009= 

METAR EGOS 081850Z 24013KT 9999 FEW035 SCT060 BKN250 08/02 Q1014 RMK 

METAR EGPB 081850Z 30019G33KT 8000 -SHRA FEW013CB SCT024 03/01 Q0990= 

METAR COR EGPD 081850Z AUTO 26014KT 220V290 9999 NCD 06/M02 Q0998 NOSIG= 

METAR EGPL 081850Z AUTO 30029G39KT 9999 SCT021/// BKN028/// BKN033/// 

METAR EGPO 081850Z AUTO 33017KT 9999 -RA SCT022/// BKN028/// 05/02 

METAR EGSH 081850Z AUTO 22013KT 180V270 9999 SCT039/// BKN046/// 11/03 

METAR EGTC 081850Z 23018KT 9999 SCT049 08/02 Q1016= 

METAR EHDL 081855Z AUTO 19007KT 140V210 9999 OVC170 06/M02 Q1019 BLU= 

METAR EHGR 081855Z AUTO 19006KT 160V220 9999 OVC140 06/M01 Q1019 BLU= 

METAR EHLW 081855Z AUTO 21013KT 9999 BKN036 OVC110 06/00 Q1016 BLU= 

METAR EHVL 081855Z AUTO 22025KT 9999 OVC100 07/02 Q1015 BLU= 

METAR EHWO 081855Z AUTO 23005KT 9999 OVC120 07/M01 Q1019 BLU= 

METAR ENAN 081850Z 20009KT 9999 FEW045 M04/M08 Q0996= 

METAR ENBO 081850Z 17003KT 9999 FEW020CB SCT065 M02/M07 Q0996 NOSIG= 

METAR ENBR 081850Z 23016G30KT 9999 -RA FEW010 BKN021 05/02 Q0991 NOSIG 

METAR LGBL 081850Z 28004KT 9999 FEW030 04/01 Q1025 RMK FEW080 BLU= 

METAR LGLR 081850Z 09005KT 9999 FEW030 04/02 Q1025 RMK FEW080 BLU= 

METAR LGPZ 081850Z 06008KT 9999 FEW025 12/01 Q1022 BLU= 

METAR LGRX 081850Z 02008KT 9999 FEW025 12/02 Q1022 BLU= 

METAR LGTG 081850Z 00000KT 9999 FEW030 04/00 Q1024 RMK FEW080 BLU= 

METAR EDAC 081850Z AUTO 21006KT 9999 // OVC055/// 03/M03 Q1022= 

METAR EDLN 081850Z AUTO 18002KT 9999 // NCD 04/M02 Q1020= 

METAR EGVO 081850Z 20011KT 9999 FEW035 OVC250 08/02 Q1017 NOSIG RMK 

METAR EHVK 081855Z AUTO 20006KT 170V230 9999 OVC170 06/M02 Q1019 BLU= 

METAR ENDU 081850Z 00000KT 9999 FEW050 M03/M08 Q0996 RMK WIND 1100FT 

METAR ENGM 081850Z 17015KT 9999 -RASN BKN009 01/M00 Q0997 TEMPO 3000 

METAR ENKB 081850Z 08008KT 050V110 9999 VCSH FEW009 SCT024 BKN034 00/M01 

METAR ENNM 081850Z 09012KT CAVOK 00/M05 Q0993= 

METAR ENOL 081850Z 11015KT CAVOK 03/M06 Q0989 NOSIG= 

METAR ENSD 081850Z 15004KT 120V210 8000 3000W -SN VV012 01/00 Q0987 

METAR ENVA 081850Z 13010KT CAVOK 03/M07 Q0992 TEMPO 15015G25KT RMK 

METAR LGAD 081850Z 34007KT 9999 FEW025 11/02 Q1022= 

METAR LGAL 081850Z VRB03KT 9999 SCT025 05/00 Q1024= 

METAR LGLM 081850Z 05009KT 9999 FEW010 07/02 Q1023= 

METAR LGSM 081850Z 28010KT 9999 FEW018 SCT030 11/08 Q1017= 

METAR LGSO 081850Z 03022G32KT 9999 SCT018 10/03 Q1021= 

METAR LGTS 081850Z 17003KT 9999 FEW025 07/03 Q1025 NOSIG= 

METAR LICR 081850Z AUTO 04005KT 360V100 9999 NCD 09/M01 Q1027= 

METAR LIMJ 081850Z 14010KT 9999 FEW035 SCT065 13/05 Q1025= 

METAR LIRZ 081850Z AUTO 27005KT //// // NCD 09/M01 Q1026= 

METAR LOWG 081850Z AUTO VRB04KT 9999 NCD 04/M07 Q1025 NOSIG= 

METAR LOWS 081850Z 18004KT CAVOK 01/M01 Q1024 NOSIG= 

METAR LXGB 081850Z 10018KT 9999 SCT018 OVC040 16/11 Q1019 TEMPO FEW018 

METAR EDFH 081850Z 20006KT CAVOK 03/M05 Q1020= 

METAR EDLW 081850Z 21007KT CAVOK 04/M04 Q1020= 

METAR ELLX 081850Z 23005KT CAVOK 06/M04 Q1020 NOSIG= 

METAR ENAT 081850Z VRB02KT CAVOK M05/M10 Q0997 RMK WIND 700FT 12004KT= 

METAR ENBL 081850Z 16005KT 1000 SN VCFG VV009 00/M00 Q0987= 

METAR ENBS 081850Z 36004KT 290V050 9999 FEW018 M03/M06 Q0994= 

METAR ENHF 081850Z VRB01KT CAVOK M05/M08 Q0996 RMK WIND 1254FT 27003KT= 

METAR ENHV 081850Z VRB02KT 9999 FEW025 M01/M05 Q0996= 

METAR ENRA 081850Z 13005KT 9999 FEW035 M04/M06 Q0996= 

METAR ENSH 081850Z 16015KT 5000 -SHSNGS FEW008 SCT012CB BKN015 M02/M03 

METAR ENSS 081850Z 32011KT 9999 VCSH FEW014 SCT024 M00/M03 Q0994 RMK 

METAR LGKV 081850Z 31004KT 9999 FEW030 06/03 Q1024= 

METAR LGMT 081850Z 01014KT 9999 FEW018 SCT025 09/05 Q1020= 

METAR LIBP 081850Z AUTO VRB01KT 9999 NCD 08/M03 Q1027= 

METAR LICJ 081850Z 08009KT CAVOK 11/M00 Q1027= 

METAR LIEA 081850Z 02003KT CAVOK 10/01 Q1026= 

METAR LIEO 081850Z 12003KT 090V180 CAVOK 09/M02 Q1027= 

METAR LIMC 081850Z 20009KT CAVOK 11/02 Q1023 NOSIG= 

METAR LIML 081850Z 24005KT 200V280 CAVOK 12/02 Q1023 NOSIG= 

METAR LIPB 081850Z 17004KT CAVOK 10/M09 Q1022= 

METAR LIPE 081850Z 20006KT CAVOK 12/M02 Q1024= 

METAR LIPH 081850Z AUTO 07007KT 9999 NCD 07/02 Q1025= 

METAR LIPK 081850Z VRB03KT CAVOK 10/M05 Q1024= 

METAR LIPX 081850Z 22003KT CAVOK 10/M04 Q1023= 

METAR LIPZ 081850Z 14011KT CAVOK 11/04 Q1024 NOSIG= 

METAR LIRA 081850Z 20002KT CAVOK 10/M06 Q1027= 

METAR LIRN 081850Z 31006KT CAVOK 10/M02 Q1027 NOSIG= 

METAR LOWL 081850Z 20002KT CAVOK 02/M03 Q1025 R08/29//95 NOSIG= 

METAR EBCI 081850Z 20005KT CAVOK 06/M03 Q1020 NOSIG= 

METAR EBOS 081850Z 26010KT CAVOK 06/03 Q1020 NOSIG= 

METAR EDHL 081850Z 18008KT 9999 BKN046 04/M01 Q1017= 

METAR EDNY 081850Z AUTO 00000KT 9999 // NCD 05/M05 Q1022= 

METAR EDSB 081850Z VRB01KT CAVOK 06/M03 Q1022= 

METAR ENFL 081850Z 23015KT 9999 -SHRA FEW007 SCT013 BKN024 04/03 Q0986 

METAR ENKR 081850Z 29004KT CAVOK M03/M07 Q0994 RMK WIND 731FT 32005KT= 

METAR ENSG 081850Z VRB02KT 1500 SN VV006 M02/M02 Q0988 RMK WIND 3806FT 

METAR LGHI 081850Z 34008KT 9999 FEW018 SCT030 09/03 Q1019= 

METAR LGKL 081850Z AUTO 36005KT //// // ////// 10/01 Q1021 RE//= 

METAR LGKO 081850Z 33012KT 9999 SCT020 11/08 Q1017= 

METAR LGKZ 081850Z AUTO 34005KT //// // ////// 02/M13 Q1024 RE//= 

METAR LIBD 081850Z 31003KT 270V340 CAVOK 06/M03 Q1027= 

METAR LICA 081850Z AUTO 27004KT 9999 NCD 10/01 Q1027= 

METAR LICC 081850Z 10005KT 9999 FEW040 SCT060 12/05 Q1026= 

METAR LICD 081850Z AUTO 10007KT 070V130 9999 BKN039/// 14/07 Q1026= 

METAR LIME 081850Z AUTO 25004KT 9999 NCD 10/M02 Q1023= 

METAR LIMF 081850Z 13006KT CAVOK 10/M00 Q1022= 

METAR LIPQ 081850Z AUTO 12004KT 9999 NCD 07/M01 Q1025= 

METAR LIPR 081850Z AUTO 16003KT 130V200 9999 NCD 09/M04 Q1025= 

METAR LIPY 081850Z AUTO 16006KT 120V190 9999 NCD 10/M04 Q1025= 

METAR LIRF 081850Z 27004KT CAVOK 10/M04 Q1027 NOSIG= 

METAR LIRP 081845Z 22005KT 9999 FEW040 08/02 Q1026 NOSIG= 

METAR LIRQ 081850Z 26004KT 230V290 9999 BKN060 12/01 Q1026= 

METAR LOWI 081850Z AUTO 07005KT 040V130 9999 NCD 04/M03 Q1023= 

METAR LOWW 081850Z 28012KT CAVOK 04/M04 Q1025 NOSIG= 
