SANO38 ENMI 081220

METAR ENDR 081220Z NIL=
METAR ENLE 081220Z 22033KT 9999 SCT010 SCT080 06/05 Q1007 W06/S5=
METAR ENGC 081220Z NIL= METAR ENHE 081220Z 19005KT 150V210 9999 SCT033 SCT097 02/M06 Q0999

METAR ENOA 081220Z 23033KT 8000 -RA BKN009 06/06 Q0992 W///S6=
METAR ENSL 081220Z AUTO 23040KT 9999NDV FEW038/// SCT042/// 07/05 Q0999 W04/S5=

METAR ENFB 081220Z AUTO 23029KT 9999NDV SCT015/// ///// Q//// W///S5=

METAR ENSF 081220Z AUTO 24031KT //// FEW015/// 09/04 Q0989 W///S5=
METAR ENUN 081220Z 26010KT 9999 VCSH SCT035CB M02/M06 Q0997 W05/S/=
METAR EGAA 081220Z 25019KT 9999 FEW024 SCT036 08/05 Q1013 REDZ= 

METAR EGAC 081220Z AUTO 23015KT 9999 FEW031/// BKN041/// 10/03 Q1013= 

METAR EGBB 081220Z 24012KT 200V280 9999 BKN046 12/01 Q1019= 

METAR EGBJ 081220Z 23012KT 9999 FEW025 BKN032 11/06 Q1020= 

METAR EGGW 081220Z AUTO 25014KT 9999 BKN031 BKN038 11/03 Q1020= 

METAR EGHH 081220Z 24011KT 9999 BKN031 11/03 Q1022= 

METAR EGHI 081220Z 21011KT 160V260 9999 SCT032 12/03 Q1022= 

METAR EGJB 081220Z 14007KT 9999 FEW030 09/01 Q1023= 

METAR EGJJ 081220Z 13010KT 9999 FEW032 09/00 Q1023= 

METAR EGKA 081220Z 22016KT 9999 FEW041 09/01 Q1023= 

METAR EGKK 081220Z 24011KT 190V270 9999 FEW039 10/00 Q1022= 

METAR EGLC 081220Z AUTO 22011KT 180V260 9999 SCT039 12/01 Q1021= 

METAR COR EGLL 081220Z AUTO 24013KT 9999 OVC039 11/01 Q1021 NOSIG= 

METAR EGNH 081220Z 25019KT 9999 SCT016 SCT036 09/06 Q1017= 

METAR EGNJ 081220Z 23021KT 9999 SCT035 12/04 Q1016= 

METAR EGNT 081220Z 24018G28KT 9999 BKN022 10/04 Q1011= 

METAR EGNX 081220Z 25019KT 9999 SCT042 12/01 Q1017= 

METAR EGPA 081220Z 26024KT 9999 VCSH FEW012 SCT022 BKN036 07/04 Q0996= 

METAR EGPC 081220Z AUTO 24018KT 9999 SCT014/// BKN020/// BKN024/// 

METAR EGPE 081220Z 23030G42KT 9999 -RA BLDU FEW020 SCT034 11/04 Q1000= 

METAR EGPF 081220Z AUTO 24025KT 9999 SCT021/// BKN026/// BKN037/// 

METAR EGPL 081220Z AUTO 28020KT 9999 -RA FEW036/// SCT042/// BKN049/// 

METAR EGSC 081220Z 24015KT 9999 FEW022 SCT030 12/04 Q1019= 

METAR COR EGSH 081220Z 22013KT 180V240 9999 FEW027 11/04 Q1019 NOSIG= 

METAR EGSH 081220Z 22013KT 180V240 9999 FEW027 11/04 Q1019= 

METAR EGTC 081220Z 23020KT 9999 FEW029 11/04 Q1019= 

METAR EGTE 081220Z 14008KT 110V180 9999 BKN032 11/04 Q1022= 

METAR EGAC 081220Z AUTO 23015KT 9999 FEW031/// BKN041/// 10/03 Q1013= 

METAR EGBB 081220Z 24012KT 200V280 9999 BKN046 12/01 Q1019= 

METAR COR EGCC 081220Z AUTO 24018KT 9999 BKN039 BKN046 11/02 Q1017 

METAR EGDR 081218Z 21008KT 9999 SCT025 SCT045 09/04 Q1023 NOSIG RMK 

METAR EGFF 081220Z AUTO 27011KT 9999 BKN047 10/06 Q1021= 

METAR EGGD 081220Z AUTO 23013KT 9999 SCT027 BKN046 10/02 Q1021= 

METAR EGHH 081220Z 24011KT 9999 BKN031 11/03 Q1022= 

METAR EGJA 081220Z VRB04KT CAVOK 09/M00 Q1024= 

METAR EGJJ 081220Z 13010KT 9999 FEW032 09/00 Q1023= 

METAR EGKB 081220Z 23011KT 190V280 9999 FEW038 10/01 Q1021= 

METAR EGKK 081220Z 24011KT 190V270 9999 FEW039 10/00 Q1022= 

METAR EGLF 081220Z 22013KT 9999 SCT036 SCT045 12/02 Q1021= 

METAR EGMC 081220Z 21014KT 9999 FEW034 BKN038 11/M00 Q1021= 

METAR EGNH 081220Z 25019KT 9999 SCT016 SCT036 09/06 Q1017= 

METAR EGNJ 081220Z 23021KT 9999 SCT035 12/04 Q1016= 

METAR EGNV 081220Z 23020KT 9999 FEW018 SCT023 10/04 Q1013= 

METAR EGOS 081220Z 25016KT 9999 SCT035 BKN090 10/03 Q1018 NOSIG RMK 

METAR COR EGPD 081220Z AUTO 24015KT 9999 NCD 13/03 Q1002 NOSIG= 

METAR EGPE 081220Z 23030G42KT 9999 -RA BLDU FEW020 SCT034 11/04 Q1000= 

METAR EGPF 081220Z AUTO 24025KT 9999 SCT021/// BKN026/// BKN037/// 

METAR EGPK 081220Z 23017KT 9999 FEW006 OVC023 08/06 Q1011= 

METAR EGPL 081220Z AUTO 28020KT 9999 -RA FEW036/// SCT042/// BKN049/// 

METAR EGSC 081220Z 24015KT 9999 FEW022 SCT030 12/04 Q1019= 

METAR EGSY 081220Z 26015KT 9999 SCT013 BKN049 10/05 Q1021= 

METAR EGUB 081220Z 24011KT 9999 BKN035 11/04 Q1020 NOSIG RMK BLU BLU= 

METAR EDDE 081220Z 25014KT 9999 -SHSN FEW024 FEW033CB 04/M03 Q1023 

METAR EDDG 081220Z 24013KT 9999 FEW043 06/M04 Q1022 NOSIG= 

METAR EDDK 081220Z 27009KT CAVOK 07/M05 Q1024 NOSIG= 

METAR EDDM 081220Z 29011KT 9999 SCT032 SCT045 04/M04 Q1025 R08R/290195 

METAR EDDN 081220Z 27008KT 9999 VCSH SCT033 BKN045 04/M05 Q1025 R28/290295 

METAR EDDW 081220Z 23013KT 9999 SCT033 BKN049 05/M01 Q1021 R88/290095 

METAR COR EGCC 081220Z AUTO 24018KT 9999 BKN039 BKN046 11/02 Q1017 

METAR EGFF 081220Z AUTO 27011KT 9999 BKN047 10/06 Q1021= 

METAR EGGD 081220Z AUTO 23013KT 9999 SCT027 BKN046 10/02 Q1021= 

METAR EGJA 081220Z VRB04KT CAVOK 09/M00 Q1024= 

METAR EGKB 081220Z 23011KT 190V280 9999 FEW038 10/01 Q1021= 

METAR EGLF 081220Z 22013KT 9999 SCT036 SCT045 12/02 Q1021= 

METAR EGMC 081220Z 21014KT 9999 FEW034 BKN038 11/M00 Q1021= 

METAR EGNV 081220Z 23020KT 9999 FEW018 SCT023 10/04 Q1013= 

METAR COR EGPD 081220Z AUTO 24015KT 9999 NCD 13/03 Q1002 NOSIG= 

METAR EGPK 081220Z 23017KT 9999 FEW006 OVC023 08/06 Q1011= 

METAR EGSY 081220Z 26015KT 9999 SCT013 BKN049 10/05 Q1021= 
