SAUS12 KAWN 081300 RRE

METAR KABY 081253Z 17005KT 8SM CLR 17/14 A3000 RMK AO2 SLP158 T01670144= 

METAR KCHO 081253Z 04006KT 10SM CLR 16/06 A3006 RMK AO2 SLP173 T01610061= 

METAR KFFT 081253Z AUTO 14007KT 10SM OVC100 16/13 A2977 RMK AO2 RAB04E50 

METAR KGNV 081253Z 00000KT 10SM CLR 17/14 A3007 RMK AO2 SLP183 T01720139= 

METAR KGZH 081253Z AUTO 19005KT 10SM CLR 20/17 A2988 RMK AO2 RAB02E18 

METAR KHWO 081253Z 13007KT 10SM SCT035 23/14 A3004 RMK AO2 SLP174 T02280144= 

METAR KILM 081253Z 26009KT 10SM CLR 21/09 A2997 RMK AO2 SLP150 T02110094= 

METAR KJKL 081253Z AUTO 21006KT 10SM CLR 20/09 A2986 RMK AO2 SLP096 

METAR KLOU 081253Z 15011KT 10SM BKN080 BKN090 17/12 A2974 RMK AO2 SLP066 

METAR KLVL 081255Z AUTO 10006KT 10SM OVC014 15/10 A3001 RMK AO1 T01520101= 

METAR KMAI 081253Z AUTO 16006KT 10SM CLR 16/16 A2996 RMK AO2 SLP144 

METAR KMTH 081253Z AUTO 12005KT 10SM CLR 24/16 A3001 RMK AO2 SLP161 

METAR KMTJ 081253Z AUTO 14004KT 10SM CLR 04/M09 A2999 RMK AO2 SLP115 

METAR KMWK 081255Z AUTO 00000KT 10SM CLR A3000 RMK AO2= 

METAR KOGB 081253Z AUTO 22004KT 10SM CLR 16/12 A3000 RMK AO2 SLP157 

METAR KOPF 081253Z 13006KT 10SM CLR 22/15 A3004 RMK AO2 SLP173 T02220150= 

METAR KPBI 081253Z 22003KT 10SM FEW250 22/15 A3005 RMK AO2 SLP174 T02220150= 

METAR KPGD 081253Z 15007KT 10SM CLR 20/15 A3005 RMK AO2 SLP174 T02000150= 

METAR KRSW 081253Z 00000KT 10SM CLR 19/15 A3003 RMK AO2 SLP168 T01940150= 

METAR KSFB 081253Z 20007KT 10SM CLR 20/14 A3003 RMK AO2 SLP169 T02000139= 

METAR KTLH 081253Z 11004KT 9SM SCT008 16/14 A3001 RMK AO2 SLP161 T01560139= 

METAR KVRB 081253Z 28003KT 10SM CLR 20/16 A3006 RMK AO2 SLP176 T02000156= 

METAR EBBR 081250Z 24009KT 210V280 CAVOK 08/M04 Q1024 NOSIG= 

METAR EBLG 081250Z 24010KT 210V270 9999 FEW046 07/M05 Q1024 NOSIG= 

METAR EBOS 081250Z 28010KT CAVOK 08/M01 Q1023 NOSIG= 

METAR EDAH 081250Z 27012KT 240V320 9999 BKN040 07/M03 Q1018= 

METAR EDDB 081250Z 28015KT 9999 FEW043TCU 06/M04 Q1021 TEMPO 28020G30KT= 

METAR EDDC 081250Z 27011KT 240V310 9999 VCSH FEW029 FEW055CB 04/M03 

METAR EDDF 081250Z 22009KT 190V260 9999 FEW049 08/M05 Q1025 NOSIG= 

METAR EDDG 081250Z 24013KT 9999 FEW046 06/M04 Q1022 NOSIG= 

METAR EDDK 081250Z 25010KT 190V310 CAVOK 09/M05 Q1024 NOSIG= 

METAR EDDP 081250Z 27014KT 9999 FEW036CB 06/M02 Q1022 NOSIG= 

METAR EDDV 081250Z 26013KT 240V300 9999 SCT030 06/M01 Q1022 NOSIG= 

METAR EDDW 081250Z 24013KT 9999 SCT031 BKN049 06/M01 Q1021 R88/290095 

METAR EDFH 081250Z 24012KT 160V260 9999 FEW045 05/M06 Q1023= 

METAR EDHI 081250Z 26013KT 9999 FEW028CB SCT032 BKN042 06/M00 Q1020= 

METAR EDMO 081250Z 22008KT 190V250 9999 FEW035 BKN041 04/M04 Q1024= 

METAR EDTL 081250Z VRB04KT CAVOK 09/M04 Q1025= 

METAR EDVE 081250Z 25012KT 9999 FEW035 05/M02 Q1022= 

METAR EDVK 081250Z 24011KT 210V290 9999 BKN036 05/M02 Q1023= 

METAR EDXW 081250Z AUTO 23019KT 9999 // BKN055/// 07/01 Q1016= 

METAR EGJJ 081250Z 14011KT 9999 FEW032 09/M01 Q1023= 

METAR EHVL 081255Z AUTO 23029KT 9999 OVC043 08/02 Q1019 BLU= 

METAR EHWO 081255Z AUTO 24013KT 190V280 9999 BKN048 09/M03 Q1023 BLU 

METAR ELLX 081250Z 23009KT 180V260 9999 BKN048 06/M05 Q1023 NOSIG= 

METAR EGXW 081250Z 25016G26KT 9999 FEW038 BKN120 12/01 Q1016 NOSIG 

METAR EHDL 081255Z AUTO 22016KT 170V280 9999 FEW044 BKN049 OVC053 07/M02 

METAR EHGR 081255Z AUTO 25010KT 200V280 9999 BKN050 08/M03 Q1023 BLU 

METAR ENBN 081250Z 18008KT 140V200 9999 VCSH FEW010CB BKN025 01/M02 

METAR ENBS 081250Z 28003KT CAVOK M02/M06 Q0996= 

METAR ENGC 081250Z 25028KT 9999 FEW015TCU SCT018 07/05 Q0990 W06/S5= 

METAR ENHE 081250Z 18003KT 9999 FEW030 SCT040 03/M07 Q0998 W///S5= 

METAR ENHF 081250Z VRB02KT CAVOK 01/M07 Q0997 RMK WIND 1254FT 26003KT= 

METAR ENHK 081250Z 26003KT CAVOK 02/M07 Q0997= 

METAR ENNO 081250Z 24004KT 9999 FEW055 BKN085 06/M08 Q1005= 

METAR ENOA 081250Z 23033KT 6000 -SHRA OVC007 06/06 Q0992 W///S6= 

METAR ENOV 081250Z 05016KT 6000 -SHSN SCT022 BKN031 02/M03 Q0996 RMK 

METAR ENRA 081250Z 34006KT 8000 -SHSN FEW015 SCT021 BKN045 00/M04 Q1000= 

METAR ENSD 081250Z 10009KT 050V150 6000 -SHSN VV022 01/M02 Q0997 RMK 

METAR ENSH 081250Z 24004KT 200V290 9999 -SHSN SCT024CB SCT038 M00/M05 

METAR LGTG 081250Z 35010KT 7000 -RA FEW015 BKN030 07/05 Q1020 RMK BKN080 

METAR LIBD 081250Z 35011KT 320V020 CAVOK 11/M07 Q1026= 

METAR LIPE 081250Z VRB05KT CAVOK 15/M07 Q1024= 

METAR LIPK 081250Z 21005KT CAVOK 16/M04 Q1024= 

METAR LOWW 081250Z 26017KT 9999 FEW030 FEW038TCU SCT045 06/M01 Q1023 

METAR LWOH 081300Z 33006KT 310V050 9999 SCT040 06/M11 Q1021= 
