SAEU19 KAWN 081200 RRT

METAR EDAH 081220Z 27011KT 250V330 9999 BKN037 06/M03 Q1017= 

METAR EDFH 081220Z 26008G18KT 220V310 9999 SCT045 04/M06 Q1023= 

METAR EDMA 081220Z 28005KT 250V320 9999 SCT035 BKN040 04/M03 Q1025= 

METAR EDNY 081220Z 21008KT 180V260 9999 FEW058 08/M04 Q1025= 

METAR EDSB 081220Z 23005KT 130V300 CAVOK 08/M04 Q1026= 

METAR EDVK 081220Z 25010KT 220V290 9999 BKN040 05/M03 Q1023= 

METAR EGVP 081220Z 23011KT 9999 BKN033 11/03 Q1021 NOSIG RMK BLU BLU= 

METAR ETHA 081220Z 28015KT 9999 SCT030 SCT045 03/M06 Q1024 BLACKBLU+BLU+= 

METAR ETHB 081220Z 27011KT 9999 FEW033 BKN050 05/M02 Q1022 BLU BLU= 

METAR ETHC 081220Z 25013KT 9999 FEW026 SCT035 BKN065 06/M03 Q1021 BLU 

METAR ETHF 081220Z 28010KT 9999 VCSH FEW020 SCT046 BKN054 05/M04 Q1024 

METAR ETHL 081220Z 26007KT 9999 BKN050 05/M07 Q1024 BLU BLU= 

METAR ETHN 081220Z 23007KT 9999 FEW030 BKN045 04/M05 Q1024 BLU BLU= 

METAR ETHS 081220Z 26011KT 9999 SCT030 BKN050 05/M01 Q1021 BLU BLU= 

METAR ETMN 081220Z 25010KT 9999 FEW017 BKN050 05/M00 Q1019 BLU BLU= 

METAR ETND 081220Z 24015KT 9999 SCT032 BKN046 06/M02 Q1022 BLU= 

METAR ETNL 081220Z 27015KT 9999 -RA FEW035 BKN060 05/M03 Q1018 BLU 

METAR ETNN 081220Z 21007KT 9999 BKN050 07/M06 Q1024 BLU BLU= 

METAR ETNS 081220Z 26019KT 9999 FEW025 SCT040 BKN050 07/M04 Q1018 BLU 

METAR ETNW 081220Z 26013KT 9999 FEW030 BKN055 06/M02 Q1022 BLU BLU= 

METAR ETSB 081220Z 23007KT 9999 BKN040 04/M07 Q1023 BLU BLU= 

METAR ETSH 081220Z 31013G24KT 9999 VCSH FEW020CB BKN035 05/M02 Q1022 

METAR ETSL 081220Z 24011KT 9999 FEW030 BKN045 05/M07 Q1024 BLU BLU= 

METAR ETSN 081220Z 28009KT 9999 FEW040 BKN047 05/M06 Q1025 BLU BLU= 

METAR ETWM 081220Z 25014KT 9999 FEW040 BKN060 07/M04 Q1021 BLU= 

METAR EDAH 081220Z 27011KT 250V330 9999 BKN037 06/M03 Q1017= 

METAR EDFH 081220Z 26008G18KT 220V310 9999 SCT045 04/M06 Q1023= 

METAR EDVK 081220Z 25010KT 220V290 9999 BKN040 05/M03 Q1023= 

METAR EGVP 081220Z 23011KT 9999 BKN033 11/03 Q1021 NOSIG RMK BLU BLU= 

METAR ETHA 081220Z 28015KT 9999 SCT030 SCT045 03/M06 Q1024 BLACKBLU+BLU+= 

METAR ETHB 081220Z 27011KT 9999 FEW033 BKN050 05/M02 Q1022 BLU BLU= 

METAR ETHC 081220Z 25013KT 9999 FEW026 SCT035 BKN065 06/M03 Q1021 BLU 

METAR ETHF 081220Z 28010KT 9999 VCSH FEW020 SCT046 BKN054 05/M04 Q1024 

METAR ETHL 081220Z 26007KT 9999 BKN050 05/M07 Q1024 BLU BLU= 

METAR ETHN 081220Z 23007KT 9999 FEW030 BKN045 04/M05 Q1024 BLU BLU= 

METAR ETHS 081220Z 26011KT 9999 SCT030 BKN050 05/M01 Q1021 BLU BLU= 

METAR ETMN 081220Z 25010KT 9999 FEW017 BKN050 05/M00 Q1019 BLU BLU= 

METAR ETND 081220Z 24015KT 9999 SCT032 BKN046 06/M02 Q1022 BLU= 

METAR ETNL 081220Z 27015KT 9999 -RA FEW035 BKN060 05/M03 Q1018 BLU 

METAR ETNN 081220Z 21007KT 9999 BKN050 07/M06 Q1024 BLU BLU= 

METAR ETNS 081220Z 26019KT 9999 FEW025 SCT040 BKN050 07/M04 Q1018 BLU 

METAR ETNW 081220Z 26013KT 9999 FEW030 BKN055 06/M02 Q1022 BLU BLU= 

METAR ETSB 081220Z 23007KT 9999 BKN040 04/M07 Q1023 BLU BLU= 

METAR ETSH 081220Z 31013G24KT 9999 VCSH FEW020CB BKN035 05/M02 Q1022 

METAR ETSL 081220Z 24011KT 9999 FEW030 BKN045 05/M07 Q1024 BLU BLU= 

METAR ETSN 081220Z 28009KT 9999 FEW040 BKN047 05/M06 Q1025 BLU BLU= 

METAR ETWM 081220Z 25014KT 9999 FEW040 BKN060 07/M04 Q1021 BLU= 

METAR LGKP 081220Z 30013KT 9999 FEW018 20/11 Q1015= 

METAR LGSO 081220Z AUTO 32016G26KT 290V010 //// -RA ////// 16/08 Q1015 

METAR EDAH 081220Z 27011KT 250V330 9999 BKN037 06/M03 Q1017= 

METAR EDFH 081220Z 26008G18KT 220V310 9999 SCT045 04/M06 Q1023= 

METAR EDMA 081220Z 28005KT 250V320 9999 SCT035 BKN040 04/M03 Q1025= 

METAR EDSB 081220Z 23005KT 130V300 CAVOK 08/M04 Q1026= 

METAR EDVK 081220Z 25010KT 220V290 9999 BKN040 05/M03 Q1023= 

METAR ETGG 081220Z AUTO 27021KT 9999 // ////// 06/M02 Q1017 ///= 

METAR ETHA 081220Z 28015KT 9999 SCT030 SCT045 03/M06 Q1024 BLACKBLU+BLU+= 

METAR ETHB 081220Z 27011KT 9999 FEW033 BKN050 05/M02 Q1022 BLU BLU= 

METAR ETHC 081220Z 25013KT 9999 FEW026 SCT035 BKN065 06/M03 Q1021 BLU 

METAR ETHF 081220Z 28010KT 9999 VCSH FEW020 SCT046 BKN054 05/M04 Q1024 

METAR ETHL 081220Z 26007KT 9999 BKN050 05/M07 Q1024 BLU BLU= 

METAR ETHN 081220Z 23007KT 9999 FEW030 BKN045 04/M05 Q1024 BLU BLU= 

METAR ETHS 081220Z 26011KT 9999 SCT030 BKN050 05/M01 Q1021 BLU BLU= 

METAR ETMN 081220Z 25010KT 9999 FEW017 BKN050 05/M00 Q1019 BLU BLU= 

METAR ETND 081220Z 24015KT 9999 SCT032 BKN046 06/M02 Q1022 BLU= 

METAR ETNL 081220Z 27015KT 9999 -RA FEW035 BKN060 05/M03 Q1018 BLU 

METAR ETNN 081220Z 21007KT 9999 BKN050 07/M06 Q1024 BLU BLU= 

METAR ETNS 081220Z 26019KT 9999 FEW025 SCT040 BKN050 07/M04 Q1018 BLU 

METAR ETNW 081220Z 26013KT 9999 FEW030 BKN055 06/M02 Q1022 BLU BLU= 

METAR ETSB 081220Z 23007KT 9999 BKN040 04/M07 Q1023 BLU BLU= 

METAR ETSH 081220Z 31013G24KT 9999 VCSH FEW020CB BKN035 05/M02 Q1022 

METAR ETSI 081220Z 33007KT 9999 FEW036 BKN050 05/M06 Q1025 BLU BLU= 

METAR ETSL 081220Z 24011KT 9999 FEW030 BKN045 05/M07 Q1024 BLU BLU= 

METAR ETSN 081220Z 28009KT 9999 FEW040 BKN047 05/M06 Q1025 BLU BLU= 

METAR ETWM 081220Z 25014KT 9999 FEW040 BKN060 07/M04 Q1021 BLU= 
