SAUS11 KAWN 081500 RRD

METAR K96D 081455Z AUTO 03009KT 10SM BKN022 BKN060 07/M03 A2973 RMK 

METAR KBDL 081451Z VRB06KT 10SM FEW050 FEW250 18/05 A3012 RMK AO2 SLP198 

METAR KBKW 081451Z AUTO 14009G18KT 120V180 10SM CLR 21/07 A2995 RMK 

METAR KCAK 081451Z 15009KT 10SM BKN250 24/10 A2984 RMK AO2 SLP097 T02390100 

METAR KEKN 081451Z AUTO 00000KT 10SM CLR 23/06 A2994 RMK AO2 SLP134 

METAR KEWR 081451Z 00000KT 10SM FEW250 16/04 A3013 RMK AO2 SLP203 T01610044 

METAR KHTS 081451Z 19007KT 10SM CLR 23/11 A2981 RMK AO2 SLP088 T02330106 

METAR KJVL 081445Z 22007KT 10SM SCT007 OVC017 13/13 A2957= 

METAR KLGA 081451Z 00000KT 10SM FEW250 17/04 A3013 RMK AO2 SLP201 T01670044 

METAR KMWC 081445Z 15007KT 6SM -DZ BR BKN007 BKN030 OVC070 14/12 A2960= 

METAR KORD 081451Z 16011KT 10SM BKN019 BKN025 BKN050 17/13 A2957 RMK 

METAR KPCZ 081455Z AUTO 09009KT 4SM RA SCT010 BKN015 OVC030 14/13 A2958 

METAR KPIT 081451Z 12013KT 10SM BKN250 23/09 A2988 RMK AO2 SLP118 T02280089 

METAR KTAN 081452Z AUTO VRB06G14KT 10SM FEW034 16/07 A3011 RMK AO2 

METAR KXWA 081451Z AUTO 15014KT 10SM CLR 10/M07 A2968 RMK AO2 SLP064 

METAR KYNG 081451Z 11011KT 10SM SCT250 23/09 A2988 RMK AO2 SLP111 T02330094 

METAR EDDG 081450Z 22012KT 190V260 CAVOK 07/M04 Q1021 NOSIG= 

METAR EDDH 081450Z 24013KT 9999 FEW028 SCT035 06/M01 Q1019 TEMPO 26015G25KT= 

METAR EDDM 081450Z 26007KT 210V300 9999 SCT040 06/M04 Q1024 R08R/290195 

METAR EDDR 081450Z 24007KT 150V290 9999 SCT048 08/M03 Q1023 NOSIG= 

METAR EDDV 081450Z 25011KT 9999 FEW038 06/M03 Q1021 NOSIG= 

METAR EGDM 081450Z 25011KT 9999 BKN030 BKN042 10/03 Q1019 NOSIG RMK 

METAR EGNS 081450Z 23019KT 9999 FEW020 BKN042 09/05 Q1013 NOSIG= 

METAR EGOS 081450Z 25016KT 9999 SCT042 BKN120 09/02 Q1016 NOSIG RMK 

METAR EGUW 081450Z 25013KT 9999 BKN043 11/03 Q1018 NOSIG RMK BLU BLU= 

METAR EGVN 081450Z 24008KT 9999 FEW040 BKN055 11/01 Q1018 NOSIG RMK 

METAR EGYD 081450Z 25021KT 9999 BKN048 BKN250 12/01 Q1016 NOSIG RMK 

METAR EKBI 081450Z AUTO 23015G31KT 200V260 9999 OVC029/// 06/M02 Q1013= 

METAR EKCH 081450Z AUTO 26016KT 9999 OVC044/// 06/M03 Q1015 NOSIG= 

METAR EKEB 081450Z AUTO 22019G30KT 9999 OVC030/// 06/M00 Q1013= 

METAR EKOD 081450Z 23020G30KT 9999 FEW035 SCT044 BKN050 06/00 Q1015= 

METAR EKRK 081450Z AUTO 26015KT 9999 OVC041/// 05/M03 Q1015= 

METAR EKRN 081450Z AUTO 26015KT 9999 BKN060/// 06/00 Q1015= 

METAR EKSB 081450Z AUTO 23012G24KT 190V270 9999NDV OVC036/// 06/M00 

METAR LGKR 081450Z 31017KT CAVOK 15/M03 Q1020 NOSIG= 

METAR LGRP 081450Z 24013KT 9999 FEW010 SCT020 18/14 Q1013 NOSIG= 

METAR LSZA 081450Z 19008KT CAVOK 15/M11 Q1021 NOSIG= 

METAR LSZH 081450Z 17006KT 140V240 CAVOK 10/M07 Q1023 NOSIG= 

METAR EDDG 081450Z 22012KT 190V260 CAVOK 07/M04 Q1021 NOSIG= 

METAR EDDH 081450Z 24013KT 9999 FEW028 SCT035 06/M01 Q1019 TEMPO 26015G25KT= 

METAR EDDM 081450Z 26007KT 210V300 9999 SCT040 06/M04 Q1024 R08R/290195 

METAR EDDR 081450Z 24007KT 150V290 9999 SCT048 08/M03 Q1023 NOSIG= 

METAR EDDV 081450Z 25011KT 9999 FEW038 06/M03 Q1021 NOSIG= 

METAR EKBI 081450Z AUTO 23015G31KT 200V260 9999 OVC029/// 06/M02 Q1013= 

METAR EKCH 081450Z AUTO 26016KT 9999 OVC044/// 06/M03 Q1015 NOSIG= 

METAR EKEB 081450Z AUTO 22019G30KT 9999 OVC030/// 06/M00 Q1013= 

METAR EKKA 081450Z AUTO 23022KT 9999 BKN029/// 05/M02 Q1011= 

METAR EKOD 081450Z 23020G30KT 9999 FEW035 SCT044 BKN050 06/00 Q1015= 

METAR EKRK 081450Z AUTO 26015KT 9999 OVC041/// 05/M03 Q1015= 

METAR EKRN 081450Z AUTO 26015KT 9999 BKN060/// 06/00 Q1015= 

METAR EKSB 081450Z AUTO 23012G24KT 190V270 9999NDV OVC036/// 06/M00 

METAR EKSP 081450Z 23022G32KT 9999 FEW032 BKN040 BKN068 06/M02 Q1015= 

METAR EKVG 081450Z AUTO 35030G41KT 1200 R12///// R30///// -SN VV010 

METAR ETNG 081450Z 21005KT CAVOK 09/M04 Q1022 NOSIG= 

METAR LSGG 081450Z 24008KT 190V280 CAVOK 14/M13 Q1022 NOSIG= 

METAR LSZA 081450Z 19008KT CAVOK 15/M11 Q1021 NOSIG= 

METAR LSZB 081450Z 29008KT 260V330 CAVOK 11/M07 Q1022 NOSIG= 

METAR LSZH 081450Z 17006KT 140V240 CAVOK 10/M07 Q1023 NOSIG= 
