SAXN17 KAWN 081400 RRC

METAR MGGT 081400Z 20008KT 9999 FEW018 BKN080 21/15 Q1025 A3027 VOL/ 

METAR MMAA 081346Z 36006KT 6SM BKN020TCU 25/21 A2988 RMK 8/200 HZY= 

METAR MMAS 081346Z 02004KT 9SM SKC 16/M05 A3019 RMK HZY= 

METAR MMCB 081356Z 00000KT 7SM SKC 23/10 A3009 RMK CLD VA NE HZY= 

METAR MMCE 081355Z 14020KT 7SM SCT250 26/22 A2984 RMK 8/008 AC= 

METAR MMGL 081345Z 00000KT 10SM SKC 17/03 A3014 RMK ISOL CI= 

METAR MMLP 081349Z 18005KT 10SM FEW100 FEW200 14/09 A2990 RMK 8/078 

METAR MMML 081349Z 28017KT 10SM FEW070 SCT200 26/01 A2987 RMK 8/088= 

METAR MMMM 081352Z 00000KT 8SM SKC 14/05 A3022 RMK HZY= 

METAR MMMV 081348Z 00000KT 10SM FEW200 21/00 A2991 RMK 8/002= 

METAR MMMX 081351Z 07004KT 10SM SKC 17/03 A3030 NOSIG RMK HZY CI= 

METAR MMOX 081354Z 02003KT 7SM SKC 16/11 A3020 RMK HZY= 

METAR MMPR 081346Z 04003KT 15SM FEW250 19/18 A2986 RMK 8/001= 

METAR MMQT 081348Z 00000KT 7SM SKC 14/04 A3027= 

METAR MMTJ 081359Z RTD 00000KT 1/8SM FG VV001 13/13 A3005 RMK 8//// 

METAR MMTM 081347Z 07003KT 3SM BR HZ BKN012 24/22 A2986 RMK 8/600= 

METAR MMTO 081349Z 00000KT 5SM SKC 11/05 A3036 RMK HZY CI= 

METAR MMZC 081356Z 00000KT 10SM SKC 12/M02 A3022= 

METAR MMZO 081355Z 00000KT 10SM SKC 22/18 A2983= 

METAR MRLM 081400Z 00000KT 8000 -DZ SCT015 OVC100 25/24 A2990= 

METAR MTPP 081351Z 11011KT 8000 FEW006 SCT020 BKN040 26/22 Q1015 A2997= 

METAR MYGF 081400Z 18006KT 140V210 9999 CAVOK 24/14 A3006= 

METAR MYNN 081400Z 13010KT 100V160 9999 FEW035 SCT200 23/13 A3007= 

METAR MZBZ 081400Z 11004KT 9999 SCT019 SCT045 28/24 A2991 Q1012 RERA 

METAR PWAK 081358Z AUTO 07014KT 9999 SCT016 SCT024 26/23 A2988 RMK 

METAR SABE 081400Z 36013KT CAVOK 24/19 Q1012 NOSIG= 

METAR SADF 081400Z 36009KT CAVOK 24/18 Q1011= 

METAR SAZS 081400Z 03005KT 9999 SCT045 SCT100 11/02 Q1013= 

METAR SBJP 081400Z 12015KT 9999 BKN025 30/24 Q1013= 

METAR SBKP 081400Z 14008KT CAVOK 24/15 Q1023= 

METAR SBTE 081400Z 07006KT 9999 SCT025 32/19 Q1011= 

METAR SCAR 081400Z 21003KT 9999 OVC027 20/16 Q1015= 

METAR SCBA 081400Z 29009KT 9999 SCT035 SCT200 09/05 Q1011= 

METAR SCCH 081400Z 01004KT 7000 SCT070 15/11 Q1017= 

METAR SCCI 081400Z 26017KT 9999 FEW048 BKN100 07/01 Q1006 NOSIG= 

METAR SCDA 081400Z 24007KT 9999 OVC030 20/14 Q1015= 

METAR SCFA 081400Z 19007KT 9999 FEW029 BKN330 19/13 Q1016 NOSIG= 

METAR SCIE 081400Z 02007KT 9999 SCT004 BKN090 13/13 Q1017= 

METAR SCNT 081400Z 21014KT 9999 SCT023 BKN100 08/02 Q1008= 

METAR SCSE 081400Z 27003KT 150V320 9999 FEW010 17/13 Q1016= 

METAR SCTE 081400Z 02011KT 9999 FEW006 SCT030 BKN060 12/11 Q1011 NOSIG= 

METAR SEGU 081400Z 07003KT 9999 SCT016 SCT026 26/23 Q1012 NOSIG RMK 

METAR SELT 081400Z 18009KT 9999 VCSH SCT020 BKN030 12/09 Q1031= 

METAR SPHO 081400Z VRB01KT 5000 DZ BR BCFG SCT003 SCT030 OVC090 12/10 

METAR SPHY 081400Z 01003KT 9999 SCT012 BKN080 10/05 Q1038 RMK BIRD 

METAR SPJI 081400Z 00000KT 9000 OVC012 25/21 Q1022 RMK PP000= 

METAR SPJR 081400Z VRB02KT 9999 SCT023 BKN050 15/11 Q1029 RMK PP000= 

METAR SPTU 081400Z 00000KT 9999 BKN012 27/25 Q1012 RMK TX33.8/TN21.8 

METAR SPYL 081400Z 13013KT CAVOK 25/18 Q1013 RMK BIRD HAZARD RWY 17/35 

METAR SUDU 081400Z 02012KT CAVOK 25/19 Q1015= 
