SAOS31 LOWM 081320

METAR LOWW 081320Z 31025KT 9999 FEW030 BKN045 06/M02 Q1023 NOSIG=
METAR LOWL 081320Z 29007KT 9999 FEW015 SCT035 BKN060 03/M00 Q1025 R08/29//95 NOSIG=

METAR LOWS 081320Z 34008KT 9999 FEW022 SCT030 BKN050 05/M01 Q1025  R15/29//95 NOSIG=

METAR LOWI 081320Z 10004KT 030V200 9999 FEW070 10/M06 Q1022 NOSIG=
METAR LOWG 081320Z 35005KT 280V020 9999 FEW060 09/M08 Q1023 NOSIG=
METAR LOWK 081320Z 26008KT 220V300 9999 FEW070 SCT095 10/M11 Q1022  NOSIG=

METAR EDDB 081320Z 27020KT 9999 VCSH FEW040CB 05/M02 Q1021 TEMPO 27020G30KT= 

METAR EDDC 081320Z 27014KT 230V310 9999 VCSH FEW029 FEW055CB 04/M02 

METAR EDDH 081320Z 25012KT 220V290 9999 VCSH FEW016 FEW024CB SCT042 

METAR EDDL 081320Z 24010KT 200V280 CAVOK 07/M05 Q1023 NOSIG= 

METAR EDDM 081320Z 26011KT 9999 FEW036 05/M04 Q1024 R08R/290195 NOSIG= 

METAR EDDP 081320Z 27014KT 9999 FEW036CB 06/M02 Q1022 NOSIG= 

METAR EDDV 081320Z 25014KT 9999 SCT033 05/M01 Q1022 NOSIG= 

METAR EDDW 081320Z 24012KT 9999 FEW034 SCT043 06/M01 Q1021 R88/290095 

METAR EGAC 081320Z AUTO 24015KT 9999 SCT031/// BKN041/// 10/04 Q1012= 

METAR COR EGCC 081320Z AUTO 24021KT 9999 SCT043 11/01 Q1017 NOSIG= 

METAR EGDR 081319Z 23009KT 9999 SCT025 09/03 Q1022 BLU NOSIG RMK BLU 

METAR EGGW 081320Z AUTO 23013KT 9999 OVC032 11/03 Q1019= 

METAR EGJA 081320Z 26005KT 220V290 CAVOK 08/00 Q1023= 

METAR EGKK 081320Z 22011KT 170V260 9999 SCT037 11/01 Q1021= 

METAR EGLC 081320Z AUTO 24011KT 200V270 9999 BKN042 12/01 Q1021= 

METAR EGNJ 081320Z 24020KT 9999 SCT037 12/03 Q1015= 

METAR EGPH 081320Z 25019G29KT 9999 -SHRA BKN014 09/07 Q1006= 

METAR EGTE 081320Z 30004KT 260V330 9999 BKN030 10/05 Q1021= 

METAR EKAH 081320Z AUTO 24010KT 210V280 9999 BKN044/// 06/M02 Q1014= 

METAR EKCH 081320Z AUTO 25016KT 9999 OVC047/// 06/M02 Q1015 NOSIG= 

METAR EKEB 081320Z AUTO 22018KT 9999 BKN025/// 06/01 Q1014= 

METAR EKRK 081320Z AUTO 27015KT 9999 OVC050/// 06/M03 Q1015= 

METAR EGAC 081320Z AUTO 24015KT 9999 SCT031/// BKN041/// 10/04 Q1012= 

METAR EGBJ 081320Z 24008KT 9999 FEW025 BKN037 11/04 Q1019= 

METAR COR EGCC 081320Z AUTO 24021KT 9999 SCT043 11/01 Q1017 NOSIG= 

METAR EGDM 081320Z 24013KT 9999 BKN029 BKN040 11/04 Q1020 NOSIG RMK 

METAR EGDR 081319Z 23009KT 9999 SCT025 09/03 Q1022 BLU NOSIG RMK BLU 

METAR EGFF 081320Z AUTO 28013KT 9999 FEW015 BKN041 10/06 Q1021= 

METAR EGGW 081320Z AUTO 23013KT 9999 OVC032 11/03 Q1019= 

METAR EGJA 081320Z 26005KT 220V290 CAVOK 08/00 Q1023= 

METAR EGKB 081320Z 21014KT 170V240 9999 SCT036 10/01 Q1021= 

METAR EGKK 081320Z 22011KT 170V260 9999 SCT037 11/01 Q1021= 

METAR EGLC 081320Z AUTO 24011KT 200V270 9999 BKN042 12/01 Q1021= 

METAR EGNJ 081320Z 24020KT 9999 SCT037 12/03 Q1015= 

METAR EGNT 081320Z 25019G30KT 9999 BKN024 10/04 Q1010= 

METAR EGNV 081320Z 22021KT 9999 -SHRA BKN020 09/04 Q1013= 

METAR EGNX 081320Z 25021KT 9999 BKN044 12/01 Q1017= 

METAR EGOS 081320Z 25017KT 9999 FEW036 BKN110 09/02 Q1018 NOSIG RMK 

METAR EGPH 081320Z 25019G29KT 9999 -SHRA BKN014 09/07 Q1006= 

METAR EGPN 081320Z 26030KT 9999 FEW030 10/05 Q1004= 

METAR EGPO 081320Z 26026G37KT 9999 FEW016 BKN038 08/M00 Q0999= 

METAR EGPU 081320Z 28023G33KT 7000 SHRA SCT009 BKN028 06/05 Q1005= 

METAR EGSC 081320Z 24014KT 200V270 9999 FEW025 SCT030 13/03 Q1019= 

METAR EGSH 081320Z 22012KT 180V250 9999 SCT032 BKN038 12/04 Q1018= 

METAR EGTE 081320Z 30004KT 260V330 9999 BKN030 10/05 Q1021= 

METAR EGUB 081320Z 26012KT 9999 FEW039 BKN046 11/03 Q1020 NOSIG RMK 

METAR EGYD 081320Z 25023KT 9999 SCT040 SCT120 BKN250 12/02 Q1017 NOSIG 
