SAEU19 KAWN 081300 RRS

METAR EGAA 081320Z 25021KT 9999 SCT030 BKN041 09/04 Q1012= 

METAR EGAE 081320Z 25025KT 9999 VCSH FEW018 BKN022 10/07 Q1011= 

METAR EGBB 081320Z 25012KT 220V290 9999 BKN042 11/01 Q1018= 

METAR EGHH 081320Z 23011KT 190V260 9999 SCT030 11/03 Q1022= 

METAR EGJB 081320Z 31004KT 230V360 9999 FEW033 09/02 Q1023= 

METAR EGJJ 081320Z 16008KT 110V190 9999 FEW034 10/M01 Q1023= 

METAR EGKA 081320Z 22016KT CAVOK 09/02 Q1022= 

METAR EGLF 081320Z AUTO 24011KT 200V270 9999 FEW036/// SCT043/// 11/03 

METAR COR EGLL 081320Z AUTO 23013KT 9999 OVC039 11/02 Q1021 NOSIG= 

METAR EGMD 081320Z 23019KT CAVOK 10/00 Q1023= 

METAR EGNH 081320Z 25022KT 9999 FEW010 SCT033 09/05 Q1016= 

METAR EGPB 081320Z 23021KT 9000 SCT024 BKN037 07/04 Q0992= 

METAR EGPC 081320Z 25021KT 9999 SCT024 07/03 Q0998= 

METAR EGPF 081320Z AUTO 22018KT 9999 -RA BKN023 BKN031 BKN044 08/05 

METAR EGPL 081320Z 27022KT 9999 VCSH FEW015 SCT032 08/03 Q1002= 

METAR EGSS 081320Z AUTO 24013KT 9999 BKN036 12/03 Q1020= 

METAR EGSY 081320Z 27016KT 9999 SCT015 BKN046 10/05 Q1021= 

METAR ESKN 081320Z 24012KT 9999 VCSH SCT066TCU SCT100 08/M07 Q1006= 

METAR ESNK 081320Z AUTO 27009KT 9999 FEW048/// SCT070/// OVC092/// 

METAR ESNS 081320Z 24004KT CAVOK 04/M10 Q0999= 

METAR ESNU 081320Z 27007KT CAVOK 05/M07 Q1000 R14/09//70= 

METAR ESOW 081320Z 26008KT 210V330 9999 FEW041 07/M08 Q1005 R19/09//95= 

METAR ESSB 081320Z 24005KT 170V290 CAVOK 07/M08 Q1006= 

METAR ESSV 081320Z 27005KT CAVOK 07/M02 Q1008= 

METAR EBBR 081320Z 24010KT 210V280 CAVOK 08/M03 Q1023 NOSIG= 

METAR EBLG 081320Z 24011KT 210V280 9999 FEW046 07/M05 Q1023 NOSIG= 

METAR EBOS 081320Z 28011KT CAVOK 08/M01 Q1023 NOSIG= 

METAR EGJJ 081320Z 16008KT 110V190 9999 FEW034 10/M01 Q1023= 

METAR COR EGLL 081320Z AUTO 23013KT 9999 OVC039 11/02 Q1021 NOSIG= 

METAR EGPB 081320Z 23021KT 9000 SCT024 BKN037 07/04 Q0992= 

METAR EGPC 081320Z 25021KT 9999 SCT024 07/03 Q0998= 

METAR EGPF 081320Z AUTO 22018KT 9999 -RA BKN023 BKN031 BKN044 08/05 

METAR EGPL 081320Z 27022KT 9999 VCSH FEW015 SCT032 08/03 Q1002= 

METAR EGQS 081320Z 27022KT 9999 4000S RA BKN028 06/04 Q1000 BECMG 9999 

METAR EGXC 081320Z 25015KT 9999 SCT040 BKN250 13/04 Q1016 NOSIG RMK 

METAR EHWO 081325Z AUTO 25014KT 210V290 9999 OVC240 09/M03 Q1022 BLU 

METAR ENVD 081320Z 28007KT CAVOK 00/M04 Q0997= 

METAR LGEL 081320Z 34015G25KT 9999 FEW020 BKN030 10/04 Q1017= 

METAR LGKL 081320Z 31010KT 9999 SCT030 17/03 Q1017= 

METAR LGKV 081320Z 00000KT 9999 SCT025 BKN080 08/03 Q1021= 

METAR LGSA 081320Z 27014G24KT 9999 FEW025 SCT080 17/12 Q1016= 

METAR LGSR 081320Z 26017KT 9999 BKN020 18/13 Q1014= 

METAR LIBR 081320Z 36016KT CAVOK 12/M02 Q1025= 

METAR LIEE 081320Z 19010KT CAVOK 15/01 Q1027= 

METAR LIMJ 081320Z 16011KT 9999 SCT035 13/04 Q1025= 

METAR LIPQ 081320Z AUTO 21007KT 150V240 9999 NCD 13/M07 Q1024= 

METAR LIQC 081255Z 28006KT CAVOK 13/01 Q1026 RMK SKC QUK 2 QUL 1 NW 

METAR LIRF 081320Z 25010KT 220V280 CAVOK 13/M06 Q1027 NOSIG= 

METAR LOWI 081320Z 10004KT 030V200 9999 FEW070 10/M06 Q1022 NOSIG= 

METAR EDFH 081320Z 26009KT 210V310 9999 FEW045 05/M05 Q1023= 

METAR EDHI 081320Z 26016KT 9999 SCT031 06/M01 Q1020= 

METAR EDHL 081320Z 23012KT 9999 VCSH BKN042CB 05/M01 Q1019= 

METAR EDLP 081320Z 26009KT 220V300 9999 BKN044 05/M04 Q1023= 

METAR EDMO 081320Z 25006KT 220V300 9999 BKN040 04/M04 Q1024= 

METAR EDNY 081320Z 23006KT 190V270 CAVOK 08/M05 Q1024= 

METAR EDQM 081320Z 24011KT 210V280 9999 SCT029 BKN049 02/M05 Q1022= 

METAR EDSB 081320Z VRB03KT CAVOK 08/M03 Q1025= 

METAR EDVK 081320Z 24012KT 9999 SCT036 BKN045 04/M04 Q1023= 

METAR ENAT 081320Z VRB02KT CAVOK 01/M09 Q0997 RMK WIND 700FT 36003KT= 

METAR ENBL 081320Z 17006KT 2000 SN VV011 M01/M02 Q0994= 

METAR ENBN 081320Z 19011KT 1000 SHSN VV010 M01/M02 Q1001= 

METAR ENBS 081320Z VRB01KT CAVOK 00/M05 Q0996= 

METAR ENML 081320Z 07013KT 9999 SCT045 BKN066 03/M05 Q0997= 

METAR ENNM 081320Z 24011KT 9999 VCSH FEW015 SCT022 BKN034 02/M03 Q1000= 

METAR ENNO 081320Z 15007KT 110V260 9999 VCSH SCT050 BKN085 05/M07 Q1005= 

METAR ENOA 081320Z 23032KT 9999 VCSH BKN009 06/06 Q0992 W///S6= 

METAR ENSG 081320Z 06010KT 3000 -SN FEW001 VV010 M03/M05 Q0997 RMK 

METAR ENSH 081320Z 22013KT 9999 VCSH SCT024CB SCT038 M01/M08 Q0998 

METAR LEJR 081330Z 12010KT 080V160 9999 FEW045 22/09 Q1018= 

METAR LICA 081320Z AUTO 25012KT 220V280 9999 NCD 14/M02 Q1024= 

METAR LICD 081320Z AUTO 01010KT 9999 NCD 15/05 Q1024= 

METAR LICR 081320Z AUTO 36012KT 310V040 9999 NCD 15/01 Q1025= 
