SAUS11 KAWN 081400 RRX

METAR K1H2 081355Z AUTO 17003KT 10SM BKN021 OVC048 13/11 A2961 RMK 

METAR K2G9 081355Z AUTO 14007KT 090V170 10SM CLR 15/06 A3000 RMK AO2= 

METAR K8D3 081356Z AUTO 35013KT 06/05 A2959 RMK AO1 SLP029 T00610050= 

METAR K9V9 081355Z AUTO 31011KT 10SM CLR 04/01 A2968 RMK AO2 T00350012= 

METAR KAMN 081400Z AUTO 09007KT 10SM OVC110 16/09 A2974 RMK AO2 T01620093= 

METAR KAPG 081358Z 07005KT 10SM SCT080 14/08 A3011 RMK AO2A SLP199 

METAR KBVY 081353Z 02008KT 10SM CLR 13/07 A3013 RMK AO2 SLP199 T01330067= 

METAR KC65 081355Z AUTO VRB06KT 10SM OVC060 17/13 A2966 RMK A01= 

METAR KCQM 081357Z AUTO 06003KT 10SM OVC004 05/04 A2965 RMK AO2= 

METAR KCUL 081356Z AUTO 18012G21KT 10SM BKN017 OVC026 17/14 A2962 RMK 

METAR KFKR 081355Z AUTO 15015G21KT 10SM SCT043 BKN055 OVC070 16/14 

METAR KFOA 081355Z AUTO 20008KT 10SM BKN011 BKN017 OVC024 15/15 A2960 

METAR KFWC 081355Z AUTO 18008G14KT 10SM BKN013 OVC019 16/14 A2960 RMK 

METAR KGBG 081355Z AUTO 17007KT 10SM OVC038 09/06 A2957 RMK AO2 T00890060= 

METAR KGNR 081356Z AUTO 32005KT 10/04 A3012 RMK AO1 SLP205 T01000039= 

METAR KJOT 081355Z AUTO 21006KT 3SM RA SCT010 OVC020 13/12 A2960 RMK 

METAR KNUI 081353Z AUTO 11010G18KT 10SM CLR 18/08 A3007 RMK AO2 SLP182 

METAR KTIP 081355Z AUTO 17005KT 7SM -DZ SCT006 SCT012 OVC026 12/12 

METAR KTMA 081355Z AUTO 21006KT 10SM CLR 19/15 A3001 RMK AO2 T01890154= 

METAR KVYS 081355Z AUTO 00000KT 10SM 12/10 A2959 RMK AO2 T01220101= 

METAR KY70 081358Z AUTO 11009KT 10SM CLR 18/11 A2971 RMK AO2 T01830114= 

METAR EBBE 081355Z 21013KT 9999 FEW048 08/M04 Q1023 BLU BLU= 

METAR EBBL 081355Z 23010KT 9999 FEW050 SCT220 08/M04 Q1023 BLU BLU= 

METAR EBCV 081355Z AUTO 21008KT 9999 FEW053/// 09/M03 Q1023 BLU= 

METAR EBDT 081355Z AUTO 23009KT 9999 FEW050/// 08/M04 Q1023 BLU= 

METAR EBFN 081355Z 22008KT 9999 FEW040 BKN050 10/M02 Q1022 BLU BLU= 

METAR EBFS 081355Z 22010KT 9999 FEW040 06/M04 Q1022 BLU BLU= 

METAR EBLB 081355Z AUTO 23006KT 9999 NCD 03/M07 Q1022 BLU= 

METAR COR EGPB 081350Z 27026KT 9999 VCSH FEW021CB SCT034 07/03 Q0992 

METAR EGXE 081350Z 24018G29KT 9999 FEW018 BKN040 BKN250 10/03 Q1013 

METAR ENOA 081350Z 23031KT 8000 VCSH SCT010 BKN035 06/05 Q0991 W///S6= 

METAR LBBG 081400Z 31014KT 7000 SHRA FEW009 SCT019 FEW026TCU BKN042 

METAR LBGO 081400Z AUTO 30012KT 9999 NCD 10/M07 Q1020 NOSIG= 

METAR LBPD 081400Z AUTO VRB04KT 9999 FEW067 09/M06 Q1021 NOSIG= 

METAR LBSF 081400Z 28013G24KT 9999 FEW022 SCT034 BKN071 05/M05 Q1021 

METAR LBWN 081400Z 31008KT 280V350 9999 SCT045 10/M04 Q1019 NOSIG= 

METAR COR LGKO 081350Z 27016KT 9999 FEW018TCU BKN020 16/10 Q1013= 

METAR LHBP 081400Z 30017KT CAVOK 07/M03 Q1022 TEMPO 3000 SHSNRA BKN025TCU= 

METAR LKCV 081400Z 31013KT 9999 BKN049 BKN070 07/M05 Q1022 NOSIG RMK 

METAR LKNA 081400Z 33012KT 9999 -SHSN SCT027 BKN045 04/M02 Q1022 NOSIG 

METAR LKPD 081400Z 29010KT 9999 SCT037 BKN070 07/M05 Q1022 NOSIG RMK 

METAR LOXT 081350Z 28016KT 30KM FEW030CU BKN040SC 09/M06 Q1023 NOSIG 

METAR LWSK 081400Z 30008KT 270V340 9999 SCT050 09/M08 Q1023 NOSIG= 

METAR SUSO 081400Z 04010KT 9999 FEW023 SCT083 BKN200 27/19 Q1013=
METAR SUCA 081400Z 03011KT 010V070 9999 FEW030 BKN200 25/18 Q1012=
METAR SUDU 081400Z 02012KT CAVOK 25/19 Q1015= 
METAR SUAA 081400Z 02017KT CAVOK 25/17 Q1014=
METAR SULS 081400Z 03007KT CAVOK 26/18 Q1015=