SAEU19 KAWN 081200 RRR

METAR EGAA 081220Z 25019KT 9999 FEW024 SCT036 08/05 Q1013 REDZ= 

METAR EGBJ 081220Z 23012KT 9999 FEW025 BKN032 11/06 Q1020= 

METAR COR EGDY 081150Z 21012G22KT 9999 FEW020 SCT100 11/04 Q1022 TEMPO 

METAR EGGW 081220Z AUTO 25014KT 9999 BKN031 BKN038 11/03 Q1020= 

METAR EGHI 081220Z 21011KT 160V260 9999 SCT032 12/03 Q1022= 

METAR EGJB 081220Z 14007KT 9999 FEW030 09/01 Q1023= 

METAR EGKA 081220Z 22016KT 9999 FEW041 09/01 Q1023= 

METAR EGLC 081220Z AUTO 22011KT 180V260 9999 SCT039 12/01 Q1021= 

METAR COR EGLL 081220Z AUTO 24013KT 9999 OVC039 11/01 Q1021 NOSIG= 

METAR EGNT 081220Z 24018G28KT 9999 BKN022 10/04 Q1011= 

METAR EGNX 081220Z 25019KT 9999 SCT042 12/01 Q1017= 

METAR EGPA 081220Z 26024KT 9999 VCSH FEW012 SCT022 BKN036 07/04 Q0996= 

METAR EGPC 081220Z AUTO 24018KT 9999 SCT014/// BKN020/// BKN024/// 

METAR EGPF 081220Z AUTO 24025KT 9999 SCT021/// BKN026/// BKN037/// 

METAR EGPH 081220Z 25020G31KT 9999 -RA BKN019 OVC032 10/06 Q1007= 

METAR EGPN 081220Z 26028KT 9999 FEW030 10/05 Q1005= 

METAR COR EGSH 081220Z 22013KT 180V240 9999 FEW027 11/04 Q1019 NOSIG= 

METAR EGSH 081220Z 22013KT 180V240 9999 FEW027 11/04 Q1019= 

METAR EGSS 081220Z AUTO 22014KT 9999 BKN036 11/02 Q1020= 

METAR EGTC 081220Z 23020KT 9999 FEW029 11/04 Q1019= 

METAR EGTE 081220Z 14008KT 110V180 9999 BKN032 11/04 Q1022= 

METAR ESNK 081220Z 26008KT 220V290 CAVOK 05/M10 Q1002= 

METAR ESNN 081220Z AUTO 30008KT 270V330 9999 SCT066/// 05/M10 Q1003= 

METAR ESNU 081220Z 30006KT 260V320 CAVOK 04/M06 Q1000 R14/09//70= 

METAR ESPA 081220Z 28005KT 250V310 CAVOK 04/M09 Q0998= 

METAR ESSL 081220Z 28009KT 240V320 9999 FEW040TCU SCT078 09/M06 Q1006= 

METAR COR EGDY 081150Z 21012G22KT 9999 FEW020 SCT100 11/04 Q1022 TEMPO 

METAR EGPH 081220Z 25020G31KT 9999 -RA BKN019 OVC032 10/06 Q1007= 

METAR EGPN 081220Z 26028KT 9999 FEW030 10/05 Q1005= 

METAR EGSS 081220Z AUTO 22014KT 9999 BKN036 11/02 Q1020= 

METAR ENML 081220Z 08010KT 9999 SCT050 BKN068 03/M04 Q1000= 

METAR LIBD 081220Z 35011KT 320V020 CAVOK 12/M06 Q1026= 

METAR LIBR 081220Z 36015KT 9999 FEW030 12/M02 Q1025= 

METAR LICC 081220Z 07014KT 9999 FEW070 15/04 Q1024= 

METAR LICJ 081220Z 05016KT CAVOK 13/01 Q1025= 

METAR LICR 081220Z AUTO 35014KT 9999 NCD 14/00 Q1025= 

METAR LIEA 081220Z 19008KT 150V240 CAVOK 15/M03 Q1027= 

METAR LIEE 081220Z 19009KT 160V220 CAVOK 15/00 Q1027= 

METAR LIEO 081220Z 10009KT 050V140 CAVOK 16/M03 Q1027= 

METAR LIMC 081220Z VRB05KT CAVOK 14/M10 Q1023 NOSIG= 

METAR LIMF 081220Z VRB03KT CAVOK 13/M12 Q1023= 

METAR LIMJ 081220Z 18010KT 9999 SCT035 13/04 Q1025= 

METAR LIML 081220Z 27008KT 230V310 CAVOK 14/M02 Q1023 NOSIG= 

METAR LIPE 081220Z VRB04KT CAVOK 14/M08 Q1024= 

METAR LIPH 081220Z VRB05KT CAVOK 14/M11 Q1023= 

METAR LIPQ 081220Z AUTO 23009KT 9999 NCD 12/M06 Q1024= 

METAR LIPR 081220Z 09009KT 050V110 CAVOK 13/M06 Q1025= 

METAR LIPX 081220Z 24013KT 200V260 CAVOK 15/M05 Q1023= 

METAR LIPZ 081220Z 15007KT 130V190 CAVOK 11/02 Q1024 NOSIG= 

METAR LIRA 081220Z 22007KT 160V270 CAVOK 13/M10 Q1026= 

METAR LIRF 081220Z 25012KT CAVOK 13/M05 Q1027 NOSIG= 

METAR LIRN 081220Z VRB05KT CAVOK 14/M06 Q1026 NOSIG= 

METAR LIRQ 081220Z 28009KT 220V320 9999 SCT060 16/M02 Q1025= 

METAR LOWW 081220Z 29022G34KT 260V320 9999 VCSH FEW030 FEW038TCU SCT045 

METAR EBAW 081220Z 23011KT 200V260 CAVOK 09/M06 Q1024 NOSIG= 

METAR EBCI 081220Z 21008KT 170V260 9999 BKN045 07/M05 Q1024 NOSIG= 

METAR EBLG 081220Z 26009KT 200V280 9999 FEW045 06/M06 Q1024 NOSIG= 

METAR EGYD 081220Z 25021KT 9999 FEW032 SCT120 BKN250 13/04 Q1017 NOSIG 

METAR EHVL 081225Z AUTO 23028KT 9999 OVC046 08/02 Q1019 BLU= 

METAR ENHF 081220Z VRB01KT CAVOK 03/M07 Q0997 RMK WIND 1254FT 25002KT= 

METAR ENMS 081220Z 19007KT 140V230 9999 VCSH FEW020TCU BKN035 01/M07 

METAR ENNM 081220Z VRB03KT 9999 -SHSNRA FEW016 SCT022 BKN029 01/M04 

METAR ENSD 081220Z 10010KT 070V150 8000 5000W -SHSN VV024 01/M03 Q0998 

METAR ENVD 081220Z 33005KT 9999 FEW008 00/M03 Q0997= 

METAR LEJR 081230Z 11011KT 060V150 9999 FEW050 22/10 Q1018= 

METAR LGKL 081220Z 32010KT 9999 SCT030 17/03 Q1017= 

METAR LGKO 081220Z 27014KT 9999 FEW010 SCT020 19/12 Q1014= 

METAR LGLM 081220Z 02014G24KT 9999 -RA FEW010 BKN020 06/04 Q1019= 

METAR LGMT 081220Z 30007KT 9999 FEW018 SCT025 14/09 Q1014= 

METAR LGRX 081220Z 28009KT 9999 FEW025 15/02 Q1018= 

METAR LGSM 081220Z 23010KT 9999 FEW018 BKN030 19/14 Q1013= 

METAR LOWL 081220Z 32013KT 9999 -SN FEW009 SCT028 BKN042 01/00 Q1026 

METAR EBBR 081220Z 25008KT 210V280 CAVOK 07/M05 Q1024 NOSIG= 

METAR EBOS 081220Z 28010KT CAVOK 08/M02 Q1023 NOSIG= 

METAR EGPB 081220Z 24023KT 9999 -RA FEW018 BKN025 06/03 Q0993= 

METAR ENBL 081220Z 16005KT 2000 SN VV014 M01/M03 Q0996= 

METAR ENFL 081220Z 11022KT 2000 -SN VV014 01/M01 Q0995= 

METAR ENLK 081220Z 27003KT 200V330 9999 VCSH FEW025 SCT030CB 02/M06 

METAR ENNA 081220Z 18005KT CAVOK 02/M09 Q0998 RMK WIND 1800FT 16003KT= 

METAR ENNO 081220Z 22006KT 170V270 CAVOK 06/M08 Q1006= 

METAR ENOA 081220Z 23033KT 8000 -RA BKN009 06/06 Q0992 W///S6= 

METAR ENRM 081220Z 17011KT 6000 -SHSN FEW003 BKN011 M01/M02 Q1001= 

METAR ENSG 081220Z 06005KT 030V100 6000 -SHSN FEW007 VV015 M02/M06 

METAR ENST 081220Z 18011KT 9999 FEW012CB 01/M04 Q1000 RMK WIND 300FT 

METAR LGAD 081220Z 30015KT 9999 SCT025 15/03 Q1019= 

METAR LGSA 081220Z 26015KT 9999 SCT025 BKN080 16/11 Q1016= 

METAR LIBP 081220Z AUTO 06008KT 030V090 9999 NCD 13/M07 Q1026= 

METAR LICA 081220Z AUTO 24012KT 9999 NCD 14/M02 Q1025= 

METAR LICD 081220Z AUTO 36013KT 9999 NCD 15/05 Q1025= 

METAR LIME 081220Z AUTO 26010KT 210V280 9999 NCD 14/M08 Q1023= 

METAR LIRZ 081220Z AUTO 25008KT 220V280 //// // NCD 13/M09 Q1025= 

METAR LOWG 081220Z VRB04KT 9999 FEW060 SCT072 08/M07 Q1022 TEMPO 35010KT= 

METAR LOWI 081220Z VRB04KT 9999 FEW070 10/M05 Q1023 NOSIG= 

METAR LOWS 081220Z 33010KT 9999 -SHSN FEW017 SCT022 BKN050 03/M01 Q1026 
