SAEU10 KAWN 081300 RRC

METAR EDDB 081320Z 27020KT 9999 VCSH FEW040CB 05/M02 Q1021 TEMPO 27020G30KT= 

METAR EDDC 081320Z 27014KT 230V310 9999 VCSH FEW029 FEW055CB 04/M02 

METAR EDDE 081320Z 27010KT 9999 FEW033 04/M04 Q1023 NOSIG= 

METAR EDDF 081320Z 24011KT CAVOK 08/M05 Q1024 NOSIG= 

METAR EDDG 081320Z 23011KT 190V260 9999 FEW045 07/M03 Q1022 NOSIG= 

METAR EDDH 081320Z 25012KT 220V290 9999 VCSH FEW016 FEW024CB SCT042 

METAR EDDK 081320Z 26010KT CAVOK 09/M03 Q1024 NOSIG= 

METAR EDDL 081320Z 24010KT 200V280 CAVOK 07/M05 Q1023 NOSIG= 

METAR EDDM 081320Z 26011KT 9999 FEW036 05/M04 Q1024 R08R/290195 NOSIG= 

METAR EDDP 081320Z 27014KT 9999 FEW036CB 06/M02 Q1022 NOSIG= 

METAR EDDV 081320Z 25014KT 9999 SCT033 05/M01 Q1022 NOSIG= 

METAR EDDW 081320Z 24012KT 9999 FEW034 SCT043 06/M01 Q1021 R88/290095 

METAR EDFH 081320Z 26009KT 210V310 9999 FEW045 05/M05 Q1023= 

METAR EDHI 081320Z 26016KT 9999 SCT031 06/M01 Q1020= 

METAR EDLP 081320Z 26009KT 220V300 9999 BKN044 05/M04 Q1023= 

METAR EDMA 081320Z 28007KT 230V310 9999 OVC041 05/M03 Q1024= 

METAR EDMO 081320Z 25006KT 220V300 9999 BKN040 04/M04 Q1024= 

METAR EDNY 081320Z 23006KT 190V270 CAVOK 08/M05 Q1024= 

METAR EDQM 081320Z 24011KT 210V280 9999 SCT029 BKN049 02/M05 Q1022= 

METAR EDVE 081320Z 27012KT 9999 FEW034 06/M02 Q1022= 

METAR EDVK 081320Z 24012KT 9999 SCT036 BKN045 04/M04 Q1023= 

METAR EBAW 081320Z 21012KT CAVOK 09/M05 Q1023 NOSIG= 

METAR EBBR 081320Z 24010KT 210V280 CAVOK 08/M03 Q1023 NOSIG= 

METAR EBCI 081320Z 20011KT 180V240 9999 BKN045 06/M03 Q1024 NOSIG= 

METAR EBLG 081320Z 24011KT 210V280 9999 FEW046 07/M05 Q1023 NOSIG= 

METAR EBOS 081320Z 28011KT CAVOK 08/M01 Q1023 NOSIG= 

METAR EDDB 081320Z 27020KT 9999 VCSH FEW040CB 05/M02 Q1021 TEMPO 27020G30KT= 

METAR EDDH 081320Z 25012KT 220V290 9999 VCSH FEW016 FEW024CB SCT042 

METAR EDDV 081320Z 25014KT 9999 SCT033 05/M01 Q1022 NOSIG= 

METAR EDDW 081320Z 24012KT 9999 FEW034 SCT043 06/M01 Q1021 R88/290095 

METAR EDFH 081320Z 26009KT 210V310 9999 FEW045 05/M05 Q1023= 

METAR EDMA 081320Z 28007KT 230V310 9999 OVC041 05/M03 Q1024= 

METAR EDNY 081320Z 23006KT 190V270 CAVOK 08/M05 Q1024= 

METAR EDVE 081320Z 27012KT 9999 FEW034 06/M02 Q1022= 

METAR EGJJ 081320Z 16008KT 110V190 9999 FEW034 10/M01 Q1023= 

METAR EHGR 081325Z AUTO 23010KT 180V250 9999 SCT051 09/M03 Q1022 BLU 

METAR EHLW 081325Z AUTO 23019KT 200V260 9999 OVC048 08/M00 Q1020 BLU 

METAR EHVL 081325Z AUTO 23028KT 9999 BKN043 OVC047 07/02 Q1019 BLU= 

METAR EHWO 081325Z AUTO 25014KT 210V290 9999 OVC240 09/M03 Q1022 BLU 

METAR EKAH 081320Z AUTO 24010KT 210V280 9999 BKN044/// 06/M02 Q1014= 

METAR EKEB 081320Z AUTO 22018KT 9999 BKN025/// 06/01 Q1014= 

METAR ELLX 081320Z 21009KT 180V250 9999 SCT048 07/M05 Q1023 NOSIG= 

METAR EBCI 081320Z 20011KT 180V240 9999 BKN045 06/M03 Q1024 NOSIG= 

METAR EHLW 081325Z AUTO 23019KT 200V260 9999 OVC048 08/M00 Q1020 BLU 

METAR EHVL 081325Z AUTO 23028KT 9999 BKN043 OVC047 07/02 Q1019 BLU= 

METAR ELLX 081320Z 21009KT 180V250 9999 SCT048 07/M05 Q1023 NOSIG= 

METAR LGAD 081320Z 30017KT 9999 FEW025 15/03 Q1019= 

METAR LGBL 081320Z 24006KT 9999 FEW030 BKN070 10/01 Q1021= 

METAR LGLM 081320Z 01018G28KT 9999 -RA FEW010 BKN020 06/03 Q1020= 

METAR LGMT 081320Z 30007KT 9000 -RA FEW018 SCT025 12/10 Q1014= 

METAR LGRX 081320Z 27008G18KT 9999 FEW025 16/03 Q1018= 

METAR LGSO 081320Z AUTO 33024KT //// // ////// 14/07 Q1016 RE//= 

METAR LGTS 081320Z 32003KT 9999 FEW020 12/M02 Q1021 NOSIG= 

METAR LIBD 081320Z 34009KT 300V040 CAVOK 12/M06 Q1026= 

METAR LIBP 081320Z AUTO 09010KT 060V120 9999 NCD 13/M08 Q1026= 

METAR LICJ 081320Z AUTO 05015KT 9999 NCD 13/00 Q1025= 

METAR LIME 081320Z AUTO 23010KT 190V260 9999 NCD 15/M05 Q1022= 

METAR LIPH 081320Z 17005KT 120V230 CAVOK 14/M11 Q1023= 

METAR LIPR 081320Z 09009KT 060V130 CAVOK 13/M03 Q1024= 

METAR LIPX 081320Z 23014KT 9999 FEW040 15/M05 Q1023= 

METAR LIRN 081320Z 05006KT 340V110 9999 FEW055 14/M04 Q1025 NOSIG= 

METAR LIRQ 081320Z 26014KT 240V300 9999 SCT060 16/M02 Q1025= 

METAR LIRZ 081320Z AUTO VRB06KT //// // NCD 14/M08 Q1025= 

METAR LOWS 081320Z 34008KT 9999 FEW022 SCT030 BKN050 05/M01 Q1025 R15/29//95 
