SAEU19 KAWN 081300 RRU

METAR EDHL 081320Z 23012KT 9999 VCSH BKN042CB 05/M01 Q1019= 

METAR EDLN 081320Z 21006KT 160V270 CAVOK 08/M04 Q1023= 

METAR EDLP 081320Z 26009KT 220V300 9999 BKN044 05/M04 Q1023= 

METAR EDLW 081320Z 23012KT CAVOK 06/M04 Q1023= 

METAR EDSB 081320Z VRB03KT CAVOK 08/M03 Q1025= 

METAR EDTL 081320Z VRB03KT CAVOK 10/M04 Q1025= 

METAR EDXW 081320Z AUTO 24021KT 9999 // SCT055/// 07/M01 Q1016= 

METAR EGWU 081320Z 23014KT 9999 SCT037 BKN045 BKN250 12/03 Q1020 NOSIG 

METAR EGXW 081320Z 24018G30KT 9999 FEW044 BKN250 12/01 Q1016 NOSIG 

METAR EGYM 081320Z 23016KT 9999 BKN040 12/04 Q1017 NOSIG RMK BLU BLU= 

METAR ESKM 081320Z AUTO 21005KT 170V260 9999 R16/P2000N R34///// BKN080/// 

METAR ETHC 081320Z 23013KT 9999 FEW030 SCT050 BKN060 06/M02 Q1021 BLU 

METAR ETHF 081320Z 28010KT 9999 SCT038 BKN051 05/M03 Q1023 BLU BLU= 

METAR ETHN 081320Z 24007KT 9999 FEW030 BKN045 04/M06 Q1024 BLU BLU= 

METAR ETHS 081320Z 27010KT 9999 FEW030 BKN050 05/M02 Q1021 BLU BLU= 

METAR ETMN 081320Z 24013G24KT 9999 FEW017 BKN037 06/M02 Q1019 BLU BLU= 

METAR ETNH 081320Z 24011KT 9999 FEW028 BKN049 BKN220 05/M01 Q1018 BLU 

METAR ETNN 081320Z 22011KT 9999 SCT050 08/M06 Q1023 BLU+BLU+= 

METAR ETNS 081320Z 25021KT 8000 -SHRA SCT022 BKN040 BKN050 05/M02 Q1018 

METAR ETNT 081320Z 24013KT 9999 FEW025 BKN040 08/M03 Q1019 BLU BLU= 

METAR ETSB 081320Z 25008KT 9999 SCT042 05/M07 Q1022 BLU+BLU+= 

METAR ETSI 081320Z 31008KT 9999 FEW036 BKN048 06/M06 Q1024 BLU BLU= 

METAR ETSL 081320Z 31007KT 9999 FEW035 BKN050 05/M05 Q1024 BLU BLU= 

METAR ETWM 081320Z AUTO 25013KT //// // ////// 07/M04 Q1021 ///= 

METAR EDHI 081320Z 26016KT 9999 SCT031 06/M01 Q1020= 

METAR EDHL 081320Z 23012KT 9999 VCSH BKN042CB 05/M01 Q1019= 

METAR EDLN 081320Z 21006KT 160V270 CAVOK 08/M04 Q1023= 

METAR EDLP 081320Z 26009KT 220V300 9999 BKN044 05/M04 Q1023= 

METAR EDLW 081320Z 23012KT CAVOK 06/M04 Q1023= 

METAR EDMO 081320Z 25006KT 220V300 9999 BKN040 04/M04 Q1024= 

METAR EDQM 081320Z 24011KT 210V280 9999 SCT029 BKN049 02/M05 Q1022= 

METAR EDSB 081320Z VRB03KT CAVOK 08/M03 Q1025= 

METAR EDTL 081320Z VRB03KT CAVOK 10/M04 Q1025= 

METAR EDVK 081320Z 24012KT 9999 SCT036 BKN045 04/M04 Q1023= 

METAR EDXW 081320Z AUTO 24021KT 9999 // SCT055/// 07/M01 Q1016= 

METAR ETHB 081320Z 27011KT 9999 FEW038 SCT045 BKN055 06/M03 Q1022 BLU 

METAR ETHC 081320Z 23013KT 9999 FEW030 SCT050 BKN060 06/M02 Q1021 BLU 

METAR ETHF 081320Z 28010KT 9999 SCT038 BKN051 05/M03 Q1023 BLU BLU= 

METAR ETHN 081320Z 24007KT 9999 FEW030 BKN045 04/M06 Q1024 BLU BLU= 

METAR ETHS 081320Z 27010KT 9999 FEW030 BKN050 05/M02 Q1021 BLU BLU= 

METAR ETMN 081320Z 24013G24KT 9999 FEW017 BKN037 06/M02 Q1019 BLU BLU= 

METAR ETNH 081320Z 24011KT 9999 FEW028 BKN049 BKN220 05/M01 Q1018 BLU 

METAR ETNL 081320Z 26011KT 9999 SCT033 BKN058 06/M02 Q1018 BLU BLU= 

METAR ETNN 081320Z 22011KT 9999 SCT050 08/M06 Q1023 BLU+BLU+= 

METAR ETNS 081320Z 25021KT 8000 -SHRA SCT022 BKN040 BKN050 05/M02 Q1018 

METAR ETNT 081320Z 24013KT 9999 FEW025 BKN040 08/M03 Q1019 BLU BLU= 

METAR ETSB 081320Z 25008KT 9999 SCT042 05/M07 Q1022 BLU+BLU+= 

METAR ETSI 081320Z 31008KT 9999 FEW036 BKN048 06/M06 Q1024 BLU BLU= 

METAR ETSL 081320Z 31007KT 9999 FEW035 BKN050 05/M05 Q1024 BLU BLU= 

METAR ETWM 081320Z AUTO 25013KT //// // ////// 07/M04 Q1021 ///= 
