SAEU19 KAWN 081700 RRN

METAR EDDF 081720Z 20008KT CAVOK 09/M05 Q1022 NOSIG= 

METAR EDDG 081720Z 22009KT CAVOK 07/M03 Q1020 NOSIG= 

METAR EDDK 081720Z 27007KT CAVOK 08/M04 Q1021 NOSIG= 

METAR EDDS 081720Z 27003KT CAVOK 08/M04 Q1022 NOSIG= 

METAR EFJO 081720Z AUTO 29008KT CAVOK 01/M05 Q0997= 

METAR EFKE 081720Z 25007KT 9999 FEW066CB M00/M06 Q0997= 

METAR EFKS 081720Z 30006KT 9999 VCSH FEW045 M01/M07 Q0994= 

METAR EFKU 081720Z AUTO 26002KT CAVOK M00/M03 Q0998= 

METAR EFLP 081720Z AUTO 26004KT CAVOK 01/M06 Q1001= 

METAR EGFF 081720Z AUTO 27011KT 9999 -RA BKN034 08/06 Q1019= 

METAR EGGD 081720Z AUTO 25011KT 9999 BKN025 BKN029 OVC047 08/04 Q1018= 

METAR EGKK 081720Z 20010KT CAVOK 09/02 Q1019= 

METAR EGNV 081720Z 23021KT 9999 FEW025 BKN035 08/02 Q1010= 

METAR EGNX 081720Z 26020KT 9999 SCT043 10/00 Q1015= 

METAR EGSS 081720Z 23013KT 9999 OVC049 10/03 Q1017= 

METAR EGTE 081720Z 22009KT 9999 SCT033 10/03 Q1019= 

METAR EGUB 081720Z 22009KT 9999 -RA FEW038 BKN047 10/04 Q1018 NOSIG 

METAR EKAH 081720Z AUTO 23011G22KT 180V270 9999 -DZ OVC026/// 05/01 

METAR EKEB 081720Z AUTO 22021KT 4800 DZ BR OVC006/// 05/04 Q1011= 

METAR EKVD 081720Z AUTO 23020KT //// ///////// 04/03 Q1012= 

METAR ESGR 081720Z AUTO 23010G21KT 9999 R01///// R19///// // OVC044/// 

METAR ESGT 081720Z AUTO 22010KT 6000 BKN006/// BKN017/// OVC026/// 

METAR ESNK 081720Z AUTO 19004KT 160V230 9999 FEW082/// 02/M09 Q1000= 

METAR ESNN 081720Z 23003KT CAVOK 03/M12 Q1000= 

METAR ESNS 081720Z AUTO 24002KT 9999 NCD 01/M10 Q0998= 

METAR ESNU 081720Z 22005KT CAVOK 03/M08 Q0999 R14/09//70= 

METAR EGBB 081720Z 25008KT 210V290 9999 SCT036 10/02 Q1016= 

METAR COR EGCC 081720Z AUTO 24017KT 9999 NCD 10/01 Q1014 NOSIG= 

METAR EGFF 081720Z AUTO 27011KT 9999 -RA BKN034 08/06 Q1019= 

METAR EGGD 081720Z AUTO 25011KT 9999 BKN025 BKN029 OVC047 08/04 Q1018= 

METAR EGGP 081720Z 24019KT 9999 FEW038 11/04 Q1014= 

METAR EGHH 081720Z 25008KT 9999 FEW046 09/03 Q1019= 

METAR EGJB 081720Z 35004KT 310V050 CAVOK 08/02 Q1020= 

METAR EGJJ 081720Z 15004KT 120V220 CAVOK 11/01 Q1020= 

METAR EGKA 081720Z 22011KT 9999 FEW035 08/02 Q1020= 

METAR EGKK 081720Z 20010KT CAVOK 09/02 Q1019= 

METAR COR EGLL 081720Z AUTO 24009KT 9999 BKN035 OVC045 11/03 Q1018 

METAR EGNH 081720Z 25024KT 9999 VCSH FEW012 SCT036 BKN048 09/06 Q1013= 

METAR EGNJ 081720Z 24020KT 9999 SCT047 11/01 Q1013= 

METAR EGNV 081720Z 23021KT 9999 FEW025 BKN035 08/02 Q1010= 

METAR EGNX 081720Z 26020KT 9999 SCT043 10/00 Q1015= 

METAR EGPA 081720Z 27027KT 9999 -SHRA FEW015CB SCT033 SCT040 05/M00 

METAR EGPC 081720Z AUTO 25021KT 9999 NCD 06/M01 Q0995= 

METAR EGPF 081720Z AUTO 28011KT 9999 -RA BKN013/// BKN022/// OVC042/// 

METAR EGPK 081720Z 24017KT 9999 -RA FEW023 SCT032 BKN039 08/06 Q1007= 

METAR EGPL 081720Z AUTO 29030G43KT 9999 SCT022/// SCT033/// 06/02 Q1001= 

METAR EGQS 081720Z 24016KT 9999 FEW022 06/02 Q0998 TEMPO 26020G32KT 

METAR COR EGSH 081720Z 23013KT 9999 FEW042 11/03 Q1016 NOSIG= 

METAR EGSS 081720Z 23013KT 9999 OVC049 10/03 Q1017= 

METAR EGTE 081720Z 22009KT 9999 SCT033 10/03 Q1019= 

METAR EGUB 081720Z 22009KT 9999 -RA FEW038 BKN047 10/04 Q1018 NOSIG 

METAR EGAA 081720Z 25021KT 9999 FEW004 BKN033TCU 08/06 Q1009= 

METAR EGAC 081720Z AUTO 23015KT 9999 BKN040/// 09/05 Q1009= 

METAR EGBB 081720Z 25008KT 210V290 9999 SCT036 10/02 Q1016= 

METAR COR EGCC 081720Z AUTO 24017KT 9999 NCD 10/01 Q1014 NOSIG= 

METAR EGGP 081720Z 24019KT 9999 FEW038 11/04 Q1014= 

METAR EGHH 081720Z 25008KT 9999 FEW046 09/03 Q1019= 

METAR EGJA 081720Z 01005KT 340V060 CAVOK 08/00 Q1020= 

METAR EGJB 081720Z 35004KT 310V050 CAVOK 08/02 Q1020= 

METAR EGJJ 081720Z 15004KT 120V220 CAVOK 11/01 Q1020= 

METAR EGKA 081720Z 22011KT 9999 FEW035 08/02 Q1020= 

METAR EGKB 081720Z 21012KT 9999 FEW035 BKN044 09/02 Q1018= 

METAR EGLC 081720Z AUTO 24009KT 210V270 9999 OVC045 11/02 Q1018= 

METAR EGLF 081720Z AUTO 21011KT 9999 FEW038/// OVC046/// 10/03 Q1018= 

METAR COR EGLL 081720Z AUTO 24009KT 9999 BKN035 OVC045 11/03 Q1018 

METAR EGNH 081720Z 25024KT 9999 VCSH FEW012 SCT036 BKN048 09/06 Q1013= 

METAR EGNJ 081720Z 24020KT 9999 SCT047 11/01 Q1013= 

METAR EGNT 081720Z 23014KT 9999 BKN028 09/02 Q1007= 

METAR EGPA 081720Z 27027KT 9999 -SHRA FEW015CB SCT033 SCT040 05/M00 

METAR EGPC 081720Z AUTO 25021KT 9999 NCD 06/M01 Q0995= 

METAR COR EGPD 081720Z AUTO 29013KT 250V310 9999 FEW042/// //////TCU 

METAR EGPE 081720Z 24021KT 9999 FEW018 SCT030 06/01 Q0999= 

METAR EGPF 081720Z AUTO 28011KT 9999 -RA BKN013/// BKN022/// OVC042/// 

METAR EGPK 081720Z 24017KT 9999 -RA FEW023 SCT032 BKN039 08/06 Q1007= 

METAR EGPL 081720Z AUTO 29030G43KT 9999 SCT022/// SCT033/// 06/02 Q1001= 

METAR COR EGSH 081720Z 23013KT 9999 FEW042 11/03 Q1016 NOSIG= 

METAR EGTC 081720Z 24017KT 9999 FEW039 BKN048 09/02 Q1017= 
